X,Y,objectid,codigo_via,pr,distanciap,nombre,administra,territoria,latsig,longsig,cat_1,cat_4,cat_5,cat_6,cat_7,link_foto,sector,cat_2,cat_3,ruleid,a_cargo_de,sentido,ubicacion,telefono_peaje,telefono_grua,eje_adicional,eje_adicional_r,eje_grua,cat_e_ie,cat_8,cat_9,cat_ie_10,cat_iee,cat_ieee,cat_iia,cat_eae,cat_ec,cat_e,cat_ie,cat_iie,cat_iiie,cat_ive,cat_ve,cat_vie,cat_viie,d_cat_i,d_cat_ii,d_cat_iii,d_cat_iv,d_cat_v,d_cat_vi,d_cat_vii,d_cat_viii,d_cat_ix,d_cat_ie10,d_cat_iee,d_cat_ieee,d_cat_iia,d_cat_eg,d_cat_ear,d_cat_ea,d_cat_eae,d_cat_ec,d_cat_e,d_cat_ie,d_cat_iie,d_cat_iiie,d_cat_ive,d_cat_ve,d_cat_vie,d_cat_viie
-8431603.5241723,980406.186940814,6804,3306,9,300,SAN CARLOS,CONSECION ANI,CORDOBA,106,-75.74,12800,18900,20200,29400,29500, ,Monteria - San Carlos,18900,18900,2,Concesión Ruta al Mar,Aplica en ambos sentidos,"Vía Montería - San Carlos ubicado sobre el Km, 9+700",Sin Numero,3216177100,0,0,0,0,0,0,0,0,0,0,0,0,0,,0,0,0,0,0,0,Automóviles - Camperos - Camionetas,Buses,Camiones Pequeños de 2 Ejes,Camiones Grandes de 2 Ejes,Camiones de 3 y 4 Ejes,Camiones de 5 ejes,Camiones de 6 Ejes,,,,,,,,,,,,,,,,,,,
-8197500.32965066,1077995.03218952,3801,4516,40,1927,LA LOMA,CONCESION ANI,CESAR,65,-73.63939838,8100,25100,28500,0,0,http://hermes.invias.gov.co/carreteras/images/peajes/peaje.jpg,San Roque - Bosconia,9000,19500,2,Concesión Yuma,Sur – Norte,Km 42 Vía San Roque - Bosconia,3158210547,018000945566 Opción 1,9000,8700,6500,0,0,0,0,0,0,0,0,0,0,0,0,9900,12700,14400,0,0,Automoviles y camperos,Camiones y buses 2 ejes pequeños,Camiones y buses 2 ejes grandes,3 y 4 Ejes,5 Ejes, , , , , , , , ,Eje grúa,Eje adicional Remolque,Eje adicional, , , , , , , , , , 
-8048958.19065011,603245.885602427,3799,6513,16,800,ARANGUANEY,INVIAS,CASANARE,144,0,7500,21800,24500,0,0, ,Yopal   -  Paz de Ariporo,8100,17200,5,INVÍAS,Bidireccional,Yopal - Paz de Ariporo Km. 16+800,No Tiene,No Tiene,0,0,0,1100,0,0,0,0,0,0,0,0,0,0,1800,0,0,0,0,0,utomóviles y Camperos,Camiones y Buses 2 ejes pequeños,Camiones y Buses 2 ejes grandes,3 y 4 ejes,5 Ejes, , , , , , , , , , , , , , ,Categoría Especial IE,Categoría Especial IIE, , , , , 
-8325478.84357818,504662.437863535,6404,4508,3,0,GUATAQUÍ,CONSECION ANI,Cundinamarca,0,0,9700,25700,36400,59000,67400, ,Tramo que cubre la via Guataquí - Cambao - Honda,14000,19200,2,Concesión Alto Magdalena,Aplica en ambos sentidos,Km 3 Ruta 45,3219738507,3219738507,0,0,0,0,0,0,0,0,0,0,0,0,0,,0,0,0,0,0,0,Automóviles -Camperos - Camionetas,Buses - Busetas - Microbuses,Camiones pequeños 2 Ejes,Camiones Grandes de 2 ejes,Camiones de 3 y 4 Ejes,Camiones de 5 Ejes,Camiones 6 Ejes o Más,,,,,,,,,,,,,,,,,,,
-8305702.54397151,654882.36772939,3808,6005,129,851,PUERTO TRIUNFO,INVIAS,ANTIOQUIA,98,1,12800,21900,43900,62600,62600,https://hermes.invias.gov.co/recursos/Fichas%20Peajes/3808.pdf,Santuario - Cruce Ruta 45 (Caño Alegre),20100,17600,5,,Sur – Norte,KM 129+900 RUTA 6005 Autopista  Medellin - Bogota,No cuenta con número,322 384 5814,0,0,0,1000,0,0,1000,0,0,0,0,0,1000,0,1000,1000,1000,1000,1000,0,Categoría I,Categoría II,Categoría III,Categoría IV,Categoría V,Categoría VI,Categoría VII, , ,Categoría Especial VII, , , , , , , , ,Categoría Especial,Categoría Especial I,Categoría Especial II,Categoría Especial III,Categoría Especial IV,Categoría Especial V,Categoría Especial VI, 
-8402961.42339227,1153909.65593318,3806,90BLB,26,328,CORRALITO DE PIEDRA,DISTRITO,BOLÍVAR,10.30964816,-75.4852048,7900,23700,27400,27400,27400,http://hermes.invias.gov.co/carreteras/images/peajes/peaje.jpg,Vía a Barú,8500,18100,4,CONVIAL,Ambos sentidos de circulación,Variante Mamonal - Gambote,(57) (5)6609002 - 6607822 - 6609125,(57) (5)6609002 - 6607822 - 6609125,0,0,0,2900,0,0,0,0,0,0,0,0,0,0,0,7200,0,0,0,0, , , , , , , , , , , , , , , , , , , , , , , , , , 
-8200875.9580671,989434.367757286,3802,4515,28,600,PAILITAS,INVIAS,CESAR,85,1,10000,28900,32900,0,0,https://hermes.invias.gov.co/recursos/Fichas%20Peajes/3802.pdf,La Mata - San Roque,10900,22600,5,INVÍAS,Norte – Sur – Norte,Km 28+500 Vía La Mata – San Roque,3165280395, ,10200,10000,7300,4800,0,0,0,0,0,0,0,0,0,4500,200,11200,14300,16300,0,0,Automóviles y camperos,Camiones y buses  ejes,3 Ejes,4 Ejes,5 Ejes, , , , , , , , ,Eje grúa,Eje adicional remolque,Eje adicional, , , , , , , , , , 
-8174287.00614538,1148258.13020385,3798,8003,87,540,VALENCIA,CONCESION ANI,CESAR,133,-73.43076226,8100,25100,28500,0,0,http://hermes.invias.gov.co/carreteras/images/peajes/peaje.jpg,Pueblo Nuevo – Bosconia – Valledupar,9000,19500,2,Yuma Concesionaria,Sur – Norte,Km 87 Vía Pueblo Nuevo – Valledupar,3165280411,018000945566 Opción 1,9000,8700,6500,0,0,0,0,0,0,0,0,0,0,0,0,9900,12700,14400,0,0,Automóviles y camperos,Camiones y buses 2 ejes pequeños,Camiones y buses 2 ejes grandes,3 y 4 Ejes,5 Ejes, , , , , , , , ,Eje grúa,Eje adicional remolque,Eje adicional, , , , , , , , , , 
-8152887.86350601,1132652.05757069,3889,4901,105,250,SAN DIEGO,INVIAS,CESAR,10.12172583,1,4900,6200,13000,37600,42700,https://hermes.invias.gov.co/recursos/Fichas%20Peajes/3889.pdf,San Roque - La Paz,5300,5800,5,INVIAS,Aplica en ambos sentidos de circulación,Tramo que cubre:Vía Aguztín Codazzi - San Diego,,,0,0,0,3300,0,0,0,0,0,0,0,0,0,3100,0,0,0,25900,0,0,"Automóviles, camperos y camionetas",Buses,Camiones pequeños de 2 ejes,Camiones grandes de 2 ejes,Camiones de 3 ejes,Camiones de 4 ejes,Camiones de 5 ejes, , , , , , , , , , , , ,Categoría especial IE, , , ,Categoría especial VE, , 
-8229162.98752013,1125713.8597937,3809,4517,10,448,EL COPEY,CONCESION ANI,CESAR,39,-73.92382887,7900,26700,30900,0,0,http://hermes.invias.gov.co/carreteras/images/peajes/peaje.jpg,Bosconia - Río Ariguaní,8700,20300,2,Yuma Concesionaria,Sur – Norte,Km 10+300 Vía Bosconia – Rio Ariguani,3165280504,018000945566 Opción 1,9500,9100,6500,0,0,0,0,0,0,0,0,0,0,0,0,10300,13500,15600,0,0,Automóviles y camperos,Camiones y buses 2 ejes pequeños,Camiones y buses 2 ejes grandes,3 y 4 Ejes,5 Ejes, , , , , , , , ,Eje grúa,Eje adicional remolque,Eje adicional, , , , , , , , , , 
-8389611.89710456,1180770.66852315,3803,9006,19,578,BAYUNCA,CONCESION ANI,BOLÍVAR,10,-75.36516595,8000,26400,30200,0,0,http://hermes.invias.gov.co/carreteras/images/peajes/peaje.jpg,Sabanalarga - Barranquilla,8900,19800,2,Autopistas del sol,Ambos sentidos de circulación,Km 19+400 Cartagena - Santa Catalina Vía La Cordialidad,3212057236,3212057227,8700,8400,6000,0,0,0,0,0,0,0,0,0,0,0,0,0,0,0,0,0,Automóviles y Camperos,Camiones y Buses 2 ejes Pequeños,Camiones y Buses 2 ejes Grandes,3 y 4 Ejes,5 Ejes, , , , , , , , ,Eje grúa,Eje remolque,Eje adicional, , , , , , , , , , 
-8126265.14982989,761629.775417221,3817,45A07,53,730,LOS CUROS,INVIAS,SANTANDER,74,1,8600,30100,35200,0,0,https://hermes.invias.gov.co/recursos/Fichas%20Peajes/3817.pdf,San Gil - Bucaramanga,9300,24200,5, Invias,Aplica en ambos sentidos,Vía San Gil - Bucaramanga Km 53+730 Jurisdicción Municipio de Piedecuesta,sin numero,sin numero,10200,10000,7000,0,0,0,0,0,0,0,0,0,0,0,0,0,0,0,0,0,Automóviles y Camperos.,Camiones y Buses 2 ejes Pequeños.,Camiones y Buses 2 ejes Grandes.,3 y 4 ejes.,5 ejes., , , , , , , , ,Eje Grúa.,Eje Remolque.,Eje adicional., , , , , , , , , , 
-8338066.71523071,1213688.94875875,3805,9006,101,927,GALAPA,CONCESION ANI,ATLANTICO,50,-74.90209813,13000,24800,77400,103500,114800,http://hermes.invias.gov.co/carreteras/images/peajes/peaje.jpg,Sabanalarga - Barranquilla,19500,14100,2,Autopista del Sol,Ambos sentidos de circulación,Vía Cordialidad Km 98,3212057229,3212057229,9000,8700,6500,0,0,0,0,0,0,0,0,0,0,0,0,0,0,0,0,0,Automóviles y Camperos,Buses,Camiones 2 ejes Pequeños,Camiones 2 ejes Grandes,Camiones 3 y 4 ejes,Camiones 5 ejes,Camiones 6 ejes, , , , , , ,EJE GRUA,EJE REMOLQUE,EJE ADICIONAL, , , , , , , , , , 
-8122867.8835761,793295.701176387,3967,6603,48,236,PICACHO,CONCESION ANI,SANTANDER,92,-72.96896371,8500,24800,27900,0,0,http://hermes.invias.gov.co/carreteras/images/peajes/el_picacho.jpg,Bucaramanga - Cuestaboba,9300,19500,2,Autopista Bucaramanga - Pamplona S.A.S.,"Sur - Norte , Norte - Sur",Vía Bucaramanga - Pamplona Km. 48 + 000 Tramo que cubre: Bucaramaga – Pamplona,3124516349 - 3176462257 y 3004723174,3124516349 - 3176462257 y 3004723174,8700,8400,6400,0,0,0,0,0,0,0,0,0,0,0,0,0,0,0,0,0,"Automóviles , Camperos y camionetas.","Camiones , Buses y camiones 2 ejes .",Camiones de 3 y 4 ejes.,Camiones 5 ejes.,Camiones de 3 y 4 ejes., , , , , , , , ,Eje Grúa.,Eje Remolque.,Eje adicional., , , , , , , , , , 
-8617092.08030137,121043.177704251,3918,2501,56,81,EL PLACER,CONCESION ANI,NARIÑO,44,-77.4086552,10300,29900,34500,0,0,http://hermes.invias.gov.co/carreteras/images/peajes/peaje.jpg,Puente Internacional Rumichaca - San Juan de Pasto,10800,22900,2,Concesionaria Víal Uníon del Sur,Aplica en ambos sentidos de circulación,A un Kilometro del Municipio de Tangua Km. 56+050,3173682092 – 3173310921,"Móvil1: 3174275839, atiende los municipios Ipiales, Contadero e Iles Móvil 2: 3174042366, atiende a los Municipios de Imués, Yacuanquer, Tangua y Pasto",0,0,0,0,0,0,0,0,0,0,0,0,0,0,0,0,0,0,0,0,Automóviles y camperos,"Buses, Busetas y Camiones",Camiones 3 y 4 ejes,5 Ejes,6 ejes, , , , , , , , , , , , , , , , , , , , , 
-8147318.97495604,792749.770085938,7205,6602,64,362,LEBRIJA,EDISAN,SANTANDER,69,-73.19,7200,26000,29800,0,0, ,Lebrija - Palenque,8200,19600,3,DEPARTAMENTO,Sur - Norte,Vía Fortuna - Bucaramanga Km 65+500 Jurisdicción del municipuio de Lebrija,3188884392,No cuenta con servcicio,,,,,,,,,,,,,,,,,,,,,Automóviles y camperos,Camiones y Buses 2 ejes pequeños,Camiones y Buses 2 ejes Grandes,3 y 4 ejes,5 ejes,,,,,,,,,,,,,,,,,,,,,
-8423695.54138988,707053.829451389,3825, ,0,0,EBÉJICO,DEPARTAMENTO,ANTIOQUIA,35,-75.67134454,7700,23700,26700,0,0,http://hermes.invias.gov.co/carreteras/images/peajes/peaje.jpg,Puente Aurrá - Medellín (Vía Antigua al Mar),9200,19300,3, , , , , ,0,0,0,0,0,0,0,0,0,0,0,0,0,0,0,0,0,0,0,0, , , , , , , , , , , , , , , , , , , , , , , , , , 
-8418790.96303317,641104.398611949,3811,25B01,2,957,LA PINTADA,CONCESION ANI,ANTIOQUIA,67,-75.62728596,8300,24400,27400,0,0,http://hermes.invias.gov.co/carreteras/images/peajes/peaje.jpg,La Pintada - Peñalisa,9000,19200,2,Concesión Pacifico Tres S.A.S.,Sur – Norte,KM 03 RUTA 25B01 Vía Pintada – Bolombolo,3173673153,3185018100  - #272 Claro Movistar y Tigo,8700,8400,6400,0,0,0,0,0,0,0,0,0,0,0,0,0,0,0,0,0,Automóviles y Camperos,Camiones y Buses 2 Ejes,3 ejes,4 ejes,5 ejes, , , , , , , , ,Eje Grúa,Eje remolque,Eje adicional, ,Eje Cañero, , , , , , , , 
-8142954.3802872,808473.196821737,6805,45A08,13,100,RÍONEGRO,EDISAN,SANTANDER,109,-73.15,7200,26000,29800,0,0, ,La cemento - Rionegro,8200,19600,3,DEPARTAMENTO,Norte - Sur,Vía Bucaramanga - Rionegro Km 13,6569259,No cuenta con servicio,,,,,,,,,,,,,,,,,,,,,Automóviles y Camperos,Camiones y Buses 2 ejes pequeños,Camiones y Buses 2 ejes grandes,3 y 4 ejes,5 ejes,,,,,,,,,,,,,,,,,,,,,
-8187930.15050311,565939.499211534,3810,5607,27,250,MACHETÁ,CONCESION ANI,CUNDINAMARCA,76,-73.53570252,8500,12350,13850,0,0,http://hermes.invias.gov.co/carreteras/images/peajes/peaje.jpg,Brisas - Guateque,4500,9650,2,CONCESIÓN DEL SISGA S.A.S.,Ambos sentidos de circulación,Vía Sisga – Guateque Km 27,320 928 4913 - 321 964 0314,320 928 4913 - 321 964 0314,8700,8400,6400,3800,0,0,0,0,0,0,0,0,0,3900,4200,0,0,0,0,0,"Categoría I Automóviles, Camperos y Camionetas y microbuses con ejes de llanta sencilla","Categoría II Buses, Busetas microbuses con eje trasero de doble llanta",Categoría III Vehículos de pasajeros y de carga de tres y cuatro ejes,Categoría IV Vehículos de carga de cinco (5) ejes,Categoría V Vehículos de carga de seis (6) ejes, , , , , , , , ,Categoría Eje Grúa,Categoría Eje Remolque,Categoría Eje Adicional, , , ,Categoría Especial IE,Categoría Especial IIE, , , , , 
-8320384.20789636,590852.094014356,8405,4510,7,0,BRISAS,CONCESION ANI,Alto Magdalena,0,0,4800,29500,42000,67700,77500, ,Girardot - Cambao - Honda - Puerto Salgar,16100,22000,2,Concesión Alto Magdalena SAS,(Aplica en ambos sentidos),"Km, 11+000",3219738507,3219738507,,,,,,,,,,,,,,,,,,,,,Automóviles - Camperos - Camionetas,Buses,Camiones pequeños de 2 Ejes,Camiones grandes de 2 Ejes,Camiones de 3 y 4 Ejes,Camiones de 5 Ejes,Camiones de 6 o mas Ejes,,,,,,,,,,,,,,,,,,,
-8152049.66614556,843391.434361438,3823,45A08,51,350,RÍO BLANCO,INVIAS,SANTANDER,106,1,8900,26100,29500,0,0,https://hermes.invias.gov.co/recursos/Fichas%20Peajes/3823.pdf,Río Negro - San Alberto,9900,20500,5,INVIAS,Norte – Sur,Vía Rio Negro – San Alberto Km  53+100,3124570764,No cuenta con servicio,9000,8700,6600,0,0,0,0,0,0,0,0,0,0,0,0,0,0,0,0,0,Automóviles y Camperos.,Camiones y Buses 2 ejes Pequeños.,Camiones y Buses 2 Ejes Grandes.,3 y 4 ejes.,5 ejes., , , , , , , , ,Eje Grúa.,Eje Remolque.,Eje adicional., , , , , , , , , , 
-8163424.45301676,689094.829656596,3839,45A06,62,900,OIBA,INVIAS,SANTANDER,84,1,8600,30100,35200,0,0,https://hermes.invias.gov.co/recursos/Fichas%20Peajes/3839.pdf,Puente Nacional - San Gil,9300,24200,5,Invias,NORESTE- SUROCCIDENTE,Vía Puente Nacional – San Gil Km 62+950,Sin numero,Sin numero,10200,10000,7000,800,0,0,0,0,0,0,0,0,0,800,800,0,0,0,0,0,Automóviles y Camperos.,Camiones y Buses 2 ejes Pequeños.,Camiones y Buses 2 ejes Grandes.,3 y 4 ejes.,5 ejes., , , , , , , , ,Eje Grúa.,Eje Remolque.,Eje adicional., , , ,CAT ESPECIAL IE., , , , , , 
-8460158.62754577,985712.702770927,3830,7401,46,1001,LOS CEDROS,CONCESION ANI,CORDOBA,73,-75.99889801,13100,34900,55600,64100,0,http://hermes.invias.gov.co/carreteras/images/peajes/peaje.jpg,Puerto Rey - Monteria,19300,19300,2,Concesión Ruta al Mar,Aplica en ambos sentido de circulación,Via Puerto Rey – Montería Km 47 Recorrido  67 KMS,3116346193 - 3116346192,094 - 7911207,0,0,0,0,0,0,0,0,0,0,0,0,0,11300,15800,0,0,0,0,0,Automóviles y Camperos,Camiones y Buses 2 ejes Pequeños,Camiones y Buses 2 ejes Grandes,3 y 4 Ejes,5 Ejes,6 Ejes,, , , , , , ,Eje grúa,Eje remolque,Eje remolque, , , , , , , , , , 
-8192744.22722701,467307.258745242,3925,6510,7,133,PUENTE AMARILLO,CONCESION ANI,META,99,-73.59667358,3600,6150,8750,11750,13350,http://hermes.invias.gov.co/carreteras/images/peajes/peaje.jpg,Cumaral - Barranca de Upía,6150,3850,2,Concesión Vial del Oriente - COVIORIENTE S.A.S,Bidireccional,Conexión Anillo vial Cumaral Km 7+135,3168341260,3178942293  - 018000180818,0,0,0,0,0,0,0,0,0,0,0,0,0,0,0,0,0,0,0,0,"Automóviles, Camperos y Camionetas y microbuses con ejes de llanta sencilla de servicio público","Buses, busetas, microbuses con eje trasero de doble llanta",Camiones pequeños de dos (2) ejes,Camiones grandes de dos (2) ejes,Vehículos de tres (3) y cuatro (4) ejes,Vehículos de cinco (5) ejes,Vehículos de seis (6) ejes, , , , , , , , , , , , , , , , , , , 
-8391108.49904796,722668.714219451,3835,2510,0,0,PANDEQUESO,DEPARTAMENTO,ANTIOQUIA,86,-75.37861015,7800,23300,26400,0,8100,http://hermes.invias.gov.co/carreteras/images/peajes/peaje.jpg,Medellìn - Hoyo Rico,8600,18200,3,CONCESION  HATOVIAL S.A.,Norte - Sur,"KM 38+700 RUTA 2510, vía Medellín – La costa", 094-8664105 - 3108992850, 094-4012277 - 018000524477,0,7800,6000,3600,0,0,0,0,0,0,0,0,0,0,0,0,0,0,0,0,Automóviles y Camperos,Camiones y Buses 2 Ejes pequeños,Camiones y Buses 2 Ejes grandes,3 y 4 ejes,5 ejes, ,VII, , , , , , ,Eje grúa,Eje remolque, , , , ,Categoría especial, , , , , , 
-8543118.20055698,917079.844782714,10406,9001,18,70,CIRILO,ANI,Antioquia,0,0,9000,9900,20500,26500,29700, ,Vía Turbo - Necoclí,9900,9900,2,Concesión Autopistas Urabá,Norte - Sur. Sur - Norte,Vía turbo - Necoclí,3105553979 // #979,3105553979 // #979,,,,,,,,,,,,,,,,,,,,,Categoría I,Categoría II,Categoría III,Categoría IV,Categoría V,Categoría VI,Categoría VII,,,,,,,,,,,,,,,,,,,
-8354531.44778226,479171.657542351,3814,4404,9,551,GUALANDAY,CONCESION ANI,TOLIMA,54,-75.05002755,10200,38500,42400,0,0,http://hermes.invias.gov.co/carreteras/images/peajes/peaje.jpg,Ibague (Puente Blanco) - Cruce Ruta 45 (Espinal),12000,28600,2,Concesionaria San Rafael S.A.,Aplica en ambos sentidos de circulación,Km. 9+0600 de la ruta 4004 que corresponde a la vía Ibagué (Puente Blanco  El Espinal (cruce ruta 45))  Espinal,3138863287,3212087489,9900,9300,6600,5900,0,0,0,0,0,0,0,0,0,5700,0,0,0,0,0,0,Categoría I Automóviles y Camperos,Categoría II Camiones y Buses 2 ejes pequeños,Categoría III Camiones y Buses 2 ejes grandes,Categoría IV 3 y 4 ejes,Categoría V 5 Ejes, , , , , , , , ,Categoría Eje Grúa,Categoría Eje Remolque,Categoría Eje Adicional, , , ,Categoría Especial IE, , , , , , 
-8402931.84702808,961509.493165353,3821,2514,26,300,CARIMAGUA,INVIAS,CORDOBA,17,1,12700,18400,33300,52900,61100,https://hermes.invias.gov.co/recursos/Fichas%20Peajes/3821.pdf,Planeta Rica - La Ye,18400,18400,5,INVIAS,Sur – Norte,Vía Planeta Rica - Sincelejo Km 26 + 300,3102467110 - 3205221762,No cuenta con servicio,0,0,0,0,0,0,0,0,0,0,0,0,0,0,0,0,0,0,0,0,Automóviles y Campero,Camiones y Buses 2 ejes Pequeños,Camiones y Buses 2 ejes Grandes,3 y 4 Ejes,5 Ejes,6 Ejes,7 Ejes, , , , , , , , , , , , , , , , , , , 
-8393416.42627201,846518.831173691,3838,2512,1,300,TARAZÁ,INVIAS,ANTIOQUIA,124,1,8900,26100,29500,0,0,https://hermes.invias.gov.co/recursos/Fichas%20Peajes/3838.pdf,Tarazá - Caucasia,9900,20500,5,INVIAS,Sur – Norte,"KM 01+200 RUTA 2512, Via Medellin - La Costa",3102463888,(322 384 5814) este número también sirve para solicitar ambulancia,9000,8700,6600,5800,0,0,0,0,0,0,0,0,0,5400,0,0,0,0,0,0,"Automóviles, camperos, camionetas",Buses,Camiones de dos ejes pequeños,Camiones de dos ejes grandes,Camiones de tres y cuatro ejes,Camiones de cinco ejes,Camiones de seis ejes, , , , , , , , , , , , , , , , , , , 
-8275119.62070874,1229519.96938541,3841,9007,50,881,TASAJERA,DEPARTAMENTO,MAGDALENA,125,-74.33666433,10100,37200,42100,0,0,http://hermes.invias.gov.co/carreteras/images/peajes/peaje.jpg,Barranquilla - Santa Marta,12000,28100,3,Concesión (Barranquilla -Ciénaga),Norte – Sur,KM 50 Vía Barranquilla – Santa Marta,3106328761,3106303030 - 3106328761,15900,0,0,0,0,0,0,0,0,0,0,0,0,0,0,0,0,0,0,0,Automóviles y Camperos,Buses y Busetas 2 Ejes Dobles,Camiones de 3.5 Ton.,Camiones de 5 Ton.,3 Ejes, , , , , , , , , , ,Eje Adicional, , , , , , , , , , 
-8318874.26386671,1229693.57893756,3843,9007,5,569,LAUREANO GÓMEZ,DEPARTAMENTO,MAGDALENA,100,-74.72971898,10100,37200,42100,0,0,http://hermes.invias.gov.co/carreteras/images/peajes/peaje.jpg,Barranquilla - Santa Marta,1200,28100,3,Concesión (Barranquilla -Ciénaga),Norte – Sur,KM 3+300 Vía Barranquilla – Santa Marta,3106328761,3106303030 - 3106328761,15900,0,0,0,0,0,0,0,0,0,0,0,0,0,0,0,0,0,0,0,Automóviles y Camperos,Buses y Busetas 2 ejes dobles,Camiones de 3.5 Ton.,Camiones de 5 Ton.,3 Ejes, , , , , , , , , , ,Eje Adicional, , , , , , , , , , 
-8449134.96171813,491176.671543093,3840,4002,21,1604,COROZAL,CONCESION ANI,VALLE DEL CAUCA,30,-75.89991018,10400,12600,30700,38400,44600,http://hermes.invias.gov.co/carreteras/images/peajes/peaje.jpg,La Paila - Club Campestre,12600,12600,2,AUTOPISTAS DEL CAFÉ, Sur - Norte // Norte - Sur,Vía La Paila - Armenia Km 23,(6) 3282720,3138176567 #850,0,0,0,0,0,0,0,0,0,0,0,0,0,0,0,0,0,0,0,0,Automóviles y Camperos,Camiones y Buses 2 ejes pequeños,Camiones y Buses 2 ejes grandes,3 y 4 ejes,5 Ejes,6 Ejes,Categoría VII, , , , , , , , , , , , , , , , , , , 
-8401074.959998,762175.562446554,3848,2511,3,500,LOS LLANOS,INVIAS,ANTIOQUIA,75,1,8900,26100,29500,0,0,https://hermes.invias.gov.co/recursos/Fichas%20Peajes/3848.pdf,Los Llanos - Tarazá,9900,20500,5,INVIAS,Norte - Sur,"KM 03+450 RUTA 2511, vía Medellin - La Costa",3102462831,(322 384 5814) este número también sirve para solicitar ambulancia,9000,8700,6600,4500,0,0,0,0,0,0,0,0,0,4200,4800,0,0,0,0,0,"Automóviles, Camperos y Camionetas",Buses,Camiones de dos ejes pequeños,Camiones de dos ejes grandes,Camiones de tres y cuatro ejes,Camiones de cinco ejes,Camiones de seis ejes, , , , , , , , , , , , , , , , , , , 
-8271060.93200061,506787.433293481,3815,4005,109,217,CHUSACÁ,CONCESION ANI,CUNDINAMARCA,25,-74.27192598,10700,41800,48100,0,0,http://hermes.invias.gov.co/carreteras/images/peajes/peaje.jpg,Girardot - Silvania - Bogotá (Bosa),12000,25700,2,Concesión  Vía 40 Express, Sur - Norte // Norte - Sur,Soacha – Girardot Km 109, 3104224687 - 3117872339 - 3117903187,3104224687 - 3117872339 - 3117903187,10100,9800,6600,0,0,0,0,0,0,0,0,0,0,0,0,0,0,0,0,0,Automóviles y camperos.,Camiones y Buses  dos  ejes pequeños.,Camiones y Buses  dos  ejes Grandes.,Categoría IV,Categoría V Cinco ejes., , , , , , , , ,Eje Grúa.,Eje Remolque.,Eje Adicional., , , , , , , , , , 
-8239865.27887591,543429.697267256,3871,45A04,3,921,FUSCA,CONCESION ANI,CUNDINAMARCA,49,-74.02887144,8700,10800,16450,21250,22550,http://hermes.invias.gov.co/carreteras/images/peajes/peaje.jpg,Bogotá - Ubaté,7400,4700,2,CONCESIÓN ACCENORTE,Sur – Norte Aplica Únicamente saliendo de Bogotá,Bogotá – Albarracín Km 4,6760652  Opc 1 - 3125194023 – 3125196546,676 06 52,0,0,0,0,0,0,0,0,0,0,0,0,0,0,14200,0,0,0,0,0,"Categoría I Automóviles, Camperos y Camionetas de servicio público","Categoría II Buses, busetas",Categoría III Camiones pequeños de 2 ejes,Categoría IV Camiones grandes de 2 ejes,Categoría V Camiones de 3 y 4 ejes,Categoría VI Camiones de 5 ejes,Categoría VII Camiones de 6 ejes o más, , , , , , , , , , , , , , , , , , , 
-8241591.56587939,537493.257948999,3951,5501,2,723,ANDES,CONCESION ANI,CUNDINAMARCA,8,-74.03304393,8700,10800,16450,21250,23550,http://hermes.invias.gov.co/carreteras/images/peajes/peaje.jpg,Bogotá - Chocontá,7400,4700,2,CONCESIÓN ACCENORTE,Sur Norte Aplica Únicamente saliendo de Bogotá,Bogotá – Albarracín Km 2+600,6760652 - 6762948  3125194023 – 3125196546,676 06 52,0,0,0,0,0,0,0,0,0,0,0,0,0,0,14200,0,0,0,0,0,"Categoría I Automóviles, Camperos y Camionetas de servicio público","Categoría II Buses, busetas",Categoría III Camiones pequeños de 2 ejes,Categoría IV Camiones grandes de 2 ejes,Categoría V Camiones de 3 y 4 ejes,Categoría VI Camiones de 5 ejes,Categoría VII Camiones de 6 ejes o más, , , , , , , , , , , , , ,Categoría IIE, , , , , 
-8157318.52428888,630748.428866074,3813,5502,11,1055,TUTA,CONCESION ANI,BOYACÁ,131,-73.27835861,8000,14150,16650,0,0,http://hermes.invias.gov.co/carreteras/images/peajes/peaje.jpg,Tunja - Duitama,4350,11400,2,Concesión Briceño - Tunja - Sogamoso,Ambos sentidos de circulación,Via Tunja – Paipa Km 12+200 Jurisdiccion Combita,3174340959,3174422284,8200,6800,5700,4200,0,0,0,0,0,0,0,0,3000,3100,4300,4500,0,0,0,0,"Automóviles, Camperos y Camionetas","Buses, Busetas y  Camiones de 2 ejes",Camiones de tres y cuatro ejes,Vehículos de carga de cinco (5) ejes,Vehículos de carga de seis (6) ejes, , , , , , , , ,Eje grúa,Eje adicional remolque,Eje adicional, , ,CAT ESPECIAL,CAT ESPECIAL IE,CAT ESPECIAL IIE, , , , , 
-8336670.81234208,1233547.02037707,3855,90A01,103,788,PAPIROS,CONCESION ANI,ATLANTICO,87,-74.88958005,5900,25900,82500,110500,122700,http://hermes.invias.gov.co/carreteras/images/peajes/peaje.jpg,Cartagena - Lomita Arena,7000,14700,2,Concesión Costera - Barranquilla - Cartagena,Sentido Occidente Oriente,Vía al mar Km 101,3173317167,018000977330 - 3114803629,0,0,0,0,0,0,0,0,0,0,0,0,0,0,0,0,0,0,0,0,Autos,Buses,Camiones  2 ejes Pequeños,Camiones  2 ejes Grandes,Camiones  3 y 4 Ejes,5 Ejes,6 Ejes, , , , , , , , , , , , , , , , , , , 
-8378382.41055531,1134281.26295158,3917,9005,61,583,GAMBOTE,CONCESION ANI,BOLÍVAR,52,-75.26428976,8000,26400,30200,0,0,http://hermes.invias.gov.co/carreteras/images/peajes/peaje.jpg,Cruz del Viso - Cartagena,8900,19800,2,Ruta Caribe,Ambos sentidos de circulación,Km 61+400 Ruta 9005 Troncal de Occidente,3212057230,3212057227,8700,8400,6000,0,0,0,0,0,0,0,0,0,0,0,0,0,0,0,0,0,Automóviles y Camperos,Camiones y Buses 2 ejes Pequeños,Camiones y Buses 2 ejes Grandes,3 y 4 Ejes,5 Ejes, , , , , , , , ,Eje grúa,Eje remolque,Eje adicional, , , , , , , , , , 
-8426951.43689974,238603.734488149,3816,4504,497,60,ALTAMIRA,CONCESION ANI,HUILA,4,-75.70075507,8500,24800,27900,0,0,http://hermes.invias.gov.co/carreteras/images/peajes/altamira.jpg,Pitalito - Garzón,9300,19500,2,Concesión Rodovias Colombia S.A.S,Aplica en ambos sentidos de circulación,Vía Pitalito – Garzon Km 60+500 Jurisdicción Municipio de Altamira (Llano de la Virgen),320 995 5541,311 260 50 25  - #296,8700,8400,6400,2400,0,0,0,0,0,0,0,6700,0,2500,5400,0,0,0,0,0,Automóviles y Camperos,Camiones y Buses 2 ejes pequeños,Camiones y Buses 2 ejes grandes,3 y 4 ejes,5 Ejes, , , , , , , , ,Eje Grúa,Eje Remolque,Eje Adicional, , , ,Categoría IE, , , , , , 
-8396123.58470846,713460.061127831,3878,0,0,0,CABILDO,DEPARTAMENTO,ANTIOQUIA,6.39576885,-75.42355837,9200,15900,26100,34900,39000,http://hermes.invias.gov.co/carreteras/images/peajes/peaje.jpg,Girardota - Hatillo,10200,11100,3, , , ,2892224 - 3108992859,01-8000-522-44-77,0,0,0,0,0,0,0,0,0,0,0,0,0,0,0,0,0,0,0,0,Automóviles y Camperos,Camiones y Buses 2 Ejes pequeños,Camiones y Buses 2 Ejes grandes,3 y 4 ejes,5 ejes,6 ejes,VII, , , , , , , , , , , , , , , , , , , 
-8511774.43807431,396260.791883258,5604,2301,0,0,CENCAR,INVIAS,VALLE DEL CAUCA,20,1,9000,38300,44100,0,0,https://hermes.invias.gov.co/recursos/Fichas%20Peajes/5604.pdf,Cali - Yumbo,10900,29400,5,INVIAS,Sur - Norte // Norte - Sur,Vía Yumbo – Aeropuerto Km 2+950,No cuenta con número,No cuenta con servicio,10700,21200,6600,4600,,,,,,,,6600,,,4900,,,,,,Automóviles y Camperos,Camiones y Buses 2 ejes pequeños,Camiones y Buses 2 ejes grandes,3 y 4 ejes,5 Ejes,,,,,,,,,Eje Grúa,Eje Adicional Remolque,Eje Adicional,,Eje Cañero,,CAT IE,CAT IIE,,,,,
-8603265.89141249,158697.417260253,3862,2502,36,0,CANO,INVIAS,NARIÑO,16,1,10600,0,0,0,0,https://hermes.invias.gov.co/recursos/Fichas%20Peajes/3862.pdf,San Juan de Pasto - Cano,11300,0,5,INVIAS,Norte – Sur,Vía Pasto – Mojarras Km 36 Jurisdicción del municipio de Chachagui,No tiene,No cuenta con servicio,,9800,6700,0,0,0,0,0,0,0,0,0,0,0,0,0,0,0,0,0,Categoría I Automóviles y camperos,Categoría II Camiones y buses 2 ejes pequeños, , , , , , , , , , , ,Categoría Eje Grúa,Categoría Eje Remolque,Categoría Eje Adicional, , , , , , , , , , 
-8227938.34755303,568971.692870677,3990,45A04,40,0,CASABLANCA,INVIAS,CUNDINAMARCA,18,1,8600,30100,35200,0,0,https://hermes.invias.gov.co/recursos/Fichas%20Peajes/3990.pdf,Bogotá - Ubaté,9300,24200,5,INVIAS,Sur – Norte // Norte – Sur,Cogua – Tausa Km 40+000,No tiene,No hay,10200,10000,7000,0,0,0,0,0,0,0,0,0,0,0,0,0,0,0,0,0,Categoría I Automóviles y Camperos,Categoría II Camiones y Buses 2 ejes pequeños,Categoría III Camiones y Buses 2 ejes grandes,Categoría IV 3 y 4 ejes,Categoría V 5 Ejes, , , , , , , , ,Categoría Eje Grúa,Categoría Eje Adicional Remolque,Categoría Eje Adicional, , , , , , , , , , 
-8203361.38588901,930476.385134202,3890,7006,2,800,GAMARRA,INVIAS,CESAR,51,1,8300,25100,28800,0,0,https://hermes.invias.gov.co/recursos/Fichas%20Peajes/3890.pdf,Gamarra - Aguachica,9300,19800,5,INVIAS, , ,No tiene servicio,No tiene servicio,9000,8700,600,200,0,0,0,0,0,0,0,0,0,200,200,9900,12600,14300,0,0,"Automóviles, camperos, camionetas",Buses,Camiones de dos ejes pequeños,Camiones de dos ejes grandes,Camiones de tres y cuatro ejes,Camiones de cinco ejes,Camiones de seis ejes, , , , , , , , , , , , , , , , , , , 
-8511228.92381148,404092.452314775,5205,23VL02,26,221,PASO DE LA TORRE,INVIAS,VALLE DEL CAUCA,89,1,9000,38300,44100,0,0,https://hermes.invias.gov.co/recursos/Fichas%20Peajes/5205.pdf,Paso de La Torre - Siberia (Variante Yumbo),10900,29400,5,INVIAS,Sur - Norte,Vía Vijes – Rozo Km 1+500,No cuenta con número,No cuenta con servicio,10700,21200,6600,4100,,,,,,,,6200,,,4900,,,,,,Categoría I Automóviles y Camperos,Categoría II Camiones y Buses 2 ejes pequeños,Categoría III Camiones y Buses 2 ejes grandes,Categoría IV 3 y 4 ejes,Categoría V 5 Ejes,,,,,,,,,Categoría Eje Grúa,Categoría Eje Adicional Remolque,Categoría Eje Adicional,,Categoría Eje Cañero,,Categoría IE,Categoría IIE,,,,,
-8402271.68927446,688245.820984836,3879, ,0,0,VARIANTE LAS PALMAS,DEPARTAMENTO,ANTIOQUIA,6.17084869,-75.47870768,0,0,0,0,0,http://hermes.invias.gov.co/carreteras/images/peajes/peaje.jpg,Las Palmas - Aeropuerto,0,0,3,Concesión Túnel Aburrá-Oriente, , , , ,0,0,0,0,0,0,0,0,0,0,0,0,0,0,0,0,0,0,0,0, , , , , , , , , , , , , , , , , , , , , , , , , , 
-8397491.49174703,1054598.49017997,3819,25SC01,15,402,LA ESPERANZA,CONCESION ANI,SUCRE,62,-75.43594955,8200,24300,27400,0,0,http://hermes.invias.gov.co/carreteras/images/peajes/la_esperanza.jpg,Sincelejo - Toluviejo,8900,19200,2,Concesión Autopistas de la Sabana Córdoba - Sucre,Aplica en ambos sentidos,Km 15+200 Vía Sincelejo – Toluviejo,3124964386,3184095455 – 3182406622,8700,8400,6400,0,0,0,0,0,0,0,0,0,2000,2100,0,0,0,0,0,0,Automóviles y Camperos,Camiones y Buses 2 ejes Pequeños,Camiones y Buses 2 ejes Grandes,Camiones y Buses 2 ejes Grandes,Camiones y Buses 2 ejes Grandes, , , , , , , , ,Eje grúa,Eje remolque,Eje adicional, , ,Categoría Especial, , , , , , , 
-8313853.57349249,580004.504196435,3847,5008,7,975,BICENTENARIO,INVIAS,CUNDINAMARCA,12,1,9400,34800,40400,0,0,https://hermes.invias.gov.co/recursos/Fichas%20Peajes/3847.pdf,Honda - Villeta,12200,28700,5,INVIAS,Ambos sentido de circulación,Villeta - Honda - Guaduas,3232059073,No cuenta con servicio,9000,8700,6600,4500,0,0,0,0,0,0,0,0,0,4200,5700,0,0,0,0,0,Categoría I  Automóviles y Camperos,Categoría II Camiones y Buses 2 ejes pequeños,Categoría III Camiones y Buses 2 ejes grandes,Categoría IV 3 y 4 ejes,Categoría V 5 y 6 ejes, , , , , , , , ,Categoría Eje Grúa,Categoría Eje Remolque,Categoría Eje Adicional, , , ,Categoría IE,Categoría IIE, , , , , 
-8033844.52862074,484852.743211647,3859,4008,5,175,El YUCAO,CONCESION ANI,META,137,-72.16931981,4400,4800,19700,25000,28100,http://hermes.invias.gov.co/carreteras/images/peajes/peaje.jpg,Puerto López - Puerto Gaitán,4800,4800,2,Concesión Autopistas de los Llanos,Oriente,Vía Puerto López - Puerto Gaitán Km.99+200,3102466052,018000918624 Operadores Claro - Movistar #765,0,0,0,0,0,0,0,0,0,0,0,0,0,0,0,0,0,0,0,0,Automóviles y Camperos,Camiones y Buses 2 ejes pequeños,Camiones y Buses 2 ejes grandes,3 y 4 ejes,5 Ejes,CAT VI,CAT VII, , , , , , , , , , , , , , , , , , , 
-8384578.90614924,1041973.40918553,3867,2515,5,858,LAS FLORES,CONCESION ANI,SUCRE,48,-75.31995382,4500,23600,27100,0,0,http://hermes.invias.gov.co/carreteras/images/peajes/peaje.jpg,Sincelejo - Puerta de Hierro,12000,18600,2,Concesión Autopistas de la Sabana Córdoba - Sucre,Nor Oriente,Vía Sincelejo – Carmen de Bolivar Km 05+600,3124964386,3184095455 – 3182406622,0,0,0,4700,0,0,0,0,0,0,0,0,2900,3000,4800,6300,0,0,0,0,Automóviles y Camperos,Camiones y Buses 2 ejes Pequeños,Camiones y Buses 2 ejes Grandes,Camiones y Buses 2 ejes Grandes,Camiones y Buses 2 ejes Grandes, , , , , , , , , , , , , ,ESPECIAL,ESPECIAL IE,ESPECIAL IIE, , , , , 
-8230527.19786106,539613.22797807,9606,50 CN 03,2,0,SOPÓ,CONCESION ANI,CUNDINAMARCA,0,0,9600,37600,51200,51600,0, ,Meusa,15100,25500,2,PERIMETRAL ORIENTAL DE BOGOTÁ S.A.S,Sur - Norte,El Salitre - Sopó,313 4609939,310 2399451 - #765,8700,8400,6400,,,,,,,,,,,,,,,,,,Categoría I,Categoría II,Categoría III,Categoría IV,Categoría V,Categoría VI,,,,,,,,Eje Grúa,Eje Adicional Remolque,Eje Adicional,,,,,,,,,,
-8465795.22717789,519927.601919068,3872,2302,106,0,EL TORO,INVIAS,VALLE DEL CAUCA,127,1,8700,25700,28900,0,0,https://hermes.invias.gov.co/recursos/Fichas%20Peajes/3872.pdf,Mediacanoa - Ansermanuevo,9400,20200,5,INVIAS, Sur - Norte // Norte - Sur,Vía Mediacanoa - Ansermanuevo Km 109,3102454238,No cuenta con servicio,9000,8700,6600,2500,0,0,0,0,0,0,0,7000,0,2300,0,0,0,0,0,0,Automóviles y Camperos,Camiones y Buses 2 ejes pequeños,Camiones y Buses 2 ejes grandes,3 y 4 ejes,5 Ejes, , , , , , , , ,Categoría Eje Grúa,Categoría Eje Rmolque,Categoría Eje Adicional, ,Categoría Eje Cañero, ,CAT ESPECIAL IE, , , , , , 
-8491412.48495678,462280.708543763,3873,2302,13,600,RÍO FRÍO,INVIAS,VALLE DEL CAUCA,108,1,8700,25700,28900,0,0,https://hermes.invias.gov.co/recursos/Fichas%20Peajes/3873.pdf,Mediacanoa - Ansermanuevo,9400,20200,5,INVIAS,Norte – Sur  / Sur - Norte,Vía Mediacanoa - Ansermanuevo Km 13,3102454252,No cuenta con servicio,9000,8700,6600,0,0,0,0,0,0,0,0,6500,0,0,0,0,0,0,0,0,Automóviles y Camperos,Camiones y Buses 2 ejes pequeños,Camiones y Buses 2 ejes grandes,3 y 4 ejes,5 Ejes, , , , , , , , ,Eje Grúa,Eje Remolque,Eje Adicional, ,Eje Cañero, , , , , , , , 
-8520038.86319458,300862.279965211,4805,2504,30,1053,TUNIA,INVIAS,CAUCA,129,1,9000,38300,44100,0,0,https://hermes.invias.gov.co/recursos/Fichas%20Peajes/4805.pdf,Popayán - Jamundí,10900,29400,5,INVIAS,Sur – Norte // Norte – Sur,Kilometro 31+100 Vía Panamericana Popayan – Cali,No cuenta con número,No cuenta con servicio,10700,21200,6600,4600,,,,,,,,6200,,,5500,,,,,,Categoría I Automóviles y camperos,Categoría II Camiones y buses 2 ejes pequeños,Categoría III Camiones y buses 2 ejes grandes,Categoría IV 3 y 4 ejes,Categoría V 5 ejes,,,,,,,,,Categoría Eje Grúa,Categoría Eje Adicional Remolque,Categoría Eje Adicional,,Categoría Eje Cañero,,Categoría Especial IE,Categoría Especial IIE,,,,,
-8393384.15174601,1103465.85609199,3820,9005,21,497,SAN ONOFRE,CONCESION ANI,SUCRE,117,-75.39905269,13100,19300,34900,34900,55600,http://hermes.invias.gov.co/carreteras/images/peajes/san_onofre.jpg,San Onofre - María La Baja,19300,19300,2,Concesión Ruta al Mar,Norte – Sur,Vía San Onofre – Cruz del Viso Km 21+400 metros,3104320955,3216177100,0,0,0,0,64100,0,0,0,0,0,0,0,0,0,0,0,0,0,0,0,Automóviles y Camperos,Buses,Camiones y Buses 2 ejes Pequeños,Camiones y Buses 2 ejes Grandes,3 Ejes,4 Ejes,5 Ejes,6 Ejes, , , , , , , , , , , , , , , , , , 
-8415150.27968088,563139.197675735,3869,5005,9,177,SAN BERNARDO (TRINIDAD ll),CONCESION ANI,CALDAS,114,-75.59458114,10400,12600,30700,38400,44600,http://hermes.invias.gov.co/carreteras/images/peajes/peaje.jpg,Tres Puertas -La Manuela - Estación Uribe,12600,12600,2,CONCESIÓN AUTOPISTAS DEL CAFÉ,Ambos sentidos de circulación,Tres Puertas – Puente La Libertad Km. 9 + 200,(6) 3282720,3138176567 #850,0,0,0,3200,0,0,0,0,0,0,0,0,0,0,3300,3700,3900,0,0,0,Categoría I Automóviles y Camperos,Categoría II Camiones y Buses 2 ejes pequeños,Categoría III Camiones y Buses 2 ejes grandes,Categoría IV 3 y 4 Ejes,Categoría V 5 Ejes,Categoría 6 Ejes,Categorí VII, , , , , , , , , , , , ,Categoría Especial IE,Categoría Especial IIE,Categoría Especial IIIE, , , , 
-8177973.17252654,451985.4091741,3922,4007,17,585,LA LIBERTAD,CONCESION ANI,META,64,-73.46328557,12700,30500,45400,59800,68500,http://hermes.invias.gov.co/carreteras/images/peajes/peaje.jpg,Villavicencio - Paso por el Puente sobre el Río La Balsa -Puerto Lopez,25300,18300,2,Concesión Autopistas de los Llanos,Oriente,Vía Villavicencio – Puerto López Km 18+900,(8) 6700868 – 3115615494,3223472204 - #765,0,0,0,0,0,0,0,0,0,0,0,0,6100,6300,0,0,0,0,0,0,Automóviles y Camperos,Camiones y Buses 2 ejes pequeños,Camiones y Buses 2 ejes grandes,3 y 4 Ejes,5 Ejes,6 Ejes,CAT VII, , , , , , , , , , , ,CAT Especial, , , , , , , 
-8495810.17468758,413629.600824988,5605,2505,44,893,EL CERRITO,INVIAS,VALLE DEL CAUCA,21,1,9000,38300,44100,0,0,https://hermes.invias.gov.co/recursos/Fichas%20Peajes/5605.pdf,Cali - Palmira - Buga,10900,29400,5,INVIAS,Sur - Norte // Norte - Sur,Vía Cali - Andalucia Km 43+200,No cuenta con número,No cuenta con servicio,10700,21200,6600,,,,,,,,,6600,,,,,,,,,Categoría I Automóviles y Camperos,Categoría II Camiones y Buses 2 ejes pequeños,Categoría III Camiones y Buses 2 ejes grandes,Categoría IV 3 y 4 ejes,Categoría V 5 Ejes,,,,,,,,,Eje Grúa,Eje Adicional Remolque,Eje Adicional,,Eje Cañero,,,,,,,,
-8400319.83536415,689254.149153739,3880,0,0,0,SANTA ELENA,DEPARTAMENTO,ANTIOQUIA,6.17976424,-75.46150462,10000,24900,27500,0,0,http://hermes.invias.gov.co/carreteras/images/peajes/peaje.jpg,Vía Antigua a Rionegro,12100,22100,3,Concesión Túnel Aburrá - Oriente  S.A,Ambos sentidos de circulación,"Km 21+500 , Vía Medellín - Ríonegro",(4) 4446178 - 2228085 - 4602225,(4) 4446178 - 2228085 - 4602225,12900,0,0,0,0,0,0,0,0,0,0,0,0,0,0,0,0,0,0,0,"Automóviles , camperos y camionetas",Buses,Camiones pequeños de 2 Ejes,Camiones grandes de 2 Ejes,Camiones de 3 y 4 ejes, , , , , , , , , , ,Eje adicional, , , , , , , , , , 
-8405280.80917678,1162210.73895749,3881, ,0,0,CEBALLOS,DISTRITO,BOLÍVAR,10.38301611,-75.50592218,2500,9600,14800,0,0,http://hermes.invias.gov.co/carreteras/images/peajes/peaje.jpg,Corredor de Carga,4100,0,4,CONVIAL,Ambos sentidos de circulación,Variante Mamonal - Gambote,(57) (5)6609002 - 6607822 - 6609125,(57) (5)6609002 - 6607822 - 6609125,0,0,0,0,0,0,0,0,0,0,0,0,0,0,0,0,0,0,0,0, , , , , , , , , , , , , , , , , , , , , , , , , , 
-8407576.70755061,1164900.83697562,3882, ,0,0,BAZURTO  (MANGA),CONVIAL,BOLÍVAR,10.40678505,-75.52654659,2300,9600,14800,0,0,http://hermes.invias.gov.co/carreteras/images/peajes/peaje.jpg,Calle 29,4100,0,4,CONVIAL,Ambos sentidos de circulación,Variante Mamonal - Gambote,(57)(5)6609002 - 6607822 - 6609125,(57) (5)6609002 - 6607822 - 6609125,0,0,0,0,0,0,0,0,0,0,0,0,0,0,0,0,0,0,0,0, , , , , , , , , , , , , , , , , , , , , , , , , , 
-8422418.99180838,674396.943807357,3822,6003,89,351,AMAGÁ,CONCESION ANI,ANTIOQUIA,7,-75.6598771,8600,24400,27400,0,0,http://hermes.invias.gov.co/carreteras/images/peajes/amaga.jpg,La Mansa - Primavera,9000,19200,2,Concesión Vial del Pacífico,"Suroeste

Tramo que cubre: Bolombolo - Camilo C",Km. 89+396 Ruta Nacional 6003,3207103032,3207103032,8700,8400,6400,0,0,0,0,0,0,0,0,6700,0,0,4200,9500,0,0,0,0,"Automóviles, Camperos, Pick Up, Camioneta",Camiones y Buses 2 Ejes,Camiones y Buses 2 ejes grandes,3 y 4 ejes,Categoría V, , , , , , , , ,Eje Grúa,Eje Remolque,Eje Adicional, ,Eje Carreño, , ,Categoría IIE,Categoría IIIE, , , , 
-8269903.72370373,515654.52649748,3886, ,0,0,RAMAL,DEPARTAMENTO,CUNDINAMARCA,4.62733119,-74.28997543,11200,15600,44800,61600,70300,http://hermes.invias.gov.co/carreteras/images/peajes/peaje.jpg,Variante Soacha - La Mesa,13500,13500,3,CONCESIÓN DEVISAB,Occidente - Oriente // Oriente - Occidente,kilómetro 106 Via Mosquera - Ramal a Soacha,#815 Tigo – 018000953550,#815 Tigo – 018000953550,0,0,0,0,0,0,0,0,0,0,0,0,0,0,0,0,0,0,0,0,Categoría I Automóviles y Camperos,Categoría II Camiones y Buses 2 ejes pequeños,Categoría III Camiones y Buses 2 ejes grandes,Categoría IV 3 y 4 ejes,Categoría V 5 Ejes,Categoría VI 6 Ejes,Categoría VII, , , , , , , , , , , , , , , , , , , 
-8337635.18344354,1224666.38009464,10006,25AT04,24200,0,JUAN MINA,ANI,ATLÁNTICO,0,0,13000,24800,77600,103500,114800, ,Vía Juan Mina - Las Hermanas,19500,14100,2,Concesión Costera Barranquilla - Cartagena,Norte - Sur. Sur - Norte,Vía La Cordialidad - Galapa,018000977330,311 4803629,,,,,,,,,,,,,,,,,,,,,Autos,Buses,Camiones 2 ejes Pequeños,Camiones 2 ejes Grandes,Camiones 3 y 4 ejes,Camiones 5 ejes,Camiones 6 ejes,,,,,,,,,,,,,,,,,,,
-8182111.45656302,619651.127998521,3884,6008,50,200,SÁCHICA,INVIAS,BOYACA,113,1,8700,25700,28900,0,0,https://hermes.invias.gov.co/recursos/Fichas%20Peajes/3884.pdf,Sáchica - Tunja,9400,20200,5,INVIAS,Ambos sentidos de circulación,Vía Chiquinquirá Tunja km 42+800 Jurisdicción Sáchica,3102455356,No cuenta con servicio,9000,8700,6600,0,0,0,0,0,0,0,0,0,0,0,0,0,0,0,0,0,Automóviles y Camperos,Camiones y Buses 2 ejes pequeños,Camiones y Buses 2 ejes grandes,3 y 4 ejes,5 Ejes, , , , , , , , ,Eje Grúa,Eje adicional remolque,Eje Adicional, , , , , , , , , , 
-8502711.44143613,405905.486040152,6004,2505B,0,0,ROZO,INVIAS,VALLE DEL CAUCA,111,1,9000,38300,44100,0,0,https://hermes.invias.gov.co/recursos/Fichas%20Peajes/6004.pdf,Palmaseca - El Cerrito,10900,29400,5,INVIAS,Norte – Sur,Vía Palmaseca - Cerrito Km 17,No cuenta con número,No cuenta con servicio,10700,21200,6600,4600,,,,,,,,6600,,,4900,,,,,,Automóviles y Camperos,Camiones y Buses 2 ejes pequeños,Camiones y Buses 2 ejes grandes,3 y 4 ejes,5 Ejes,,,,,,,,,Eje Grúa,Eje Adicional Remolque,Eje Adicional,,Eje Cañero,,CAT IE,CAT IIE,,,,,
-8290649.82012383,510497.507666717,3888,4702,14,1007,SAN PEDRO,DEPARTAMENTO,CUNDINAMARCA,118,-74.48647417,10500,18200,39200,51000,58900,http://hermes.invias.gov.co/carreteras/images/peajes/peaje.jpg,La Mesa - Anapoima,11700,13500,3,CONCESIÓN DEVISAB,Norte - Sur // Sur - Norte,Chía - La Mesa - Girardot Km.61 Jurisdicción del Municipio de la Mesa,#815 Tigo  018000953550,#815 Tigo  018000953550,0,0,0,0,0,0,0,0,0,0,0,0,0,0,0,0,0,0,0,0,Categoría I Automóviles y Camperos,Categoría II Camiones y Buses 2 ejes pequeños,Categoría III Camiones y Buses 2 ejes grandes,Categoría IV 3 y 4 ejes,Categoría V 5 Ejes,Categoría VI 6 Ejes,Categoría VII, , , , , , , , , , , , , , , , , , , 
-8271248.49198425,495218.966750713,3893, ,0,0,SAN MIGUEL,DEPARTAMENTO,CUNDINAMARCA,4.44416466,-74.30188939,0,0,0,0,0,http://hermes.invias.gov.co/carreteras/images/peajes/peaje.jpg,Fusagasugá - Sibaté,0,0,3, , , , , ,0,0,0,0,0,0,0,0,0,0,0,0,0,0,0,0,0,0,0,0, , , , , , , , , , , , , , , , , , , , , , , , , , 
-8179491.23631117,646201.883166638,3896,6209,27,700,ARCABUCO,INVIAS,BOYACA,9,1,8700,25700,28900,0,0,https://hermes.invias.gov.co/recursos/Fichas%20Peajes/3896.pdf,Barbosa - Tunja,9400,20200,5,INVIAS,Ambos sentidos de circulación,Vía Barbosa – Tunja Km 27 +650 Jurisdicción Arcabuco,3205221387,No cuenta con servicio,9000,8700,6600,0,0,0,0,0,0,0,0,0,0,0,0,0,0,0,0,0,Automóviles y Camperos,Camiones y Buses 2 ejes pequeños,Camiones y Buses 2 ejes grandes,3 y 4 ejes,5 Ejes, , , , , , , , ,Eje Grúa,Eje adicional remolque,Eje Adicional, , , , , , , , , , 
-8285083.10853782,546283.103249016,3898, ,0,0,JALISCO,DEPARTAMENTO,CUNDINAMARCA,59,-74.42616787,12400,19600,35300,45700,55000,http://hermes.invias.gov.co/carreteras/images/peajes/peaje.jpg,Sasaima - Albán,16800,14100,3,CONCESIÓN PANAMERICANA,Occidente - Oriente // Oriente - Occidente,Peaje Río Bogotá – Facatativá – Villeta – Vianí – Cambao Km 89+400 Jurisdicción del Municipio de Albán,3102576509  // 31*288,3102576509,0,0,0,7900,0,0,0,0,0,0,0,0,0,0,0,0,0,0,0,0,Categoría I Automóviles y Camperos,Categoría II Camiones y Buses 2 ejes pequeños,Categoría III Camiones y Buses 2 ejes grandes,Categoría IV 3 y 4 ejes,Categoría V 5 Ejes,Categoría VI6 Ejes,Categoría VII, , , , , , , , , , , , ,Categoría IE, , , , , , 
-8415683.2208525,706292.06134642,3899, ,0,0,PAJARITO,DEPARTAMENTO,ANTIOQUIA,6.33172769,-75.59937089,6000,18800,21600,0,0,http://hermes.invias.gov.co/carreteras/images/peajes/peaje.jpg,Medellín - San Pedro,6800,0,3, , , , , ,0,0,0,0,0,0,0,0,0,0,0,0,0,0,0,0,0,0,0,0, , , , , , , , , , , , , , , , , , , , , , , , , , 
-8405209.35876161,571332.642695987,3900, ,0,0,LA ESTRELLA,DEPARTAMENTO,CALDAS,5.12551851,-75.50528033,6100,22500,25300,0,0,http://hermes.invias.gov.co/carreteras/images/peajes/peaje.jpg,Manizales - Neira,7100,0,3, , , , , ,0,0,0,0,0,0,0,0,0,0,0,0,0,0,0,0,0,0,0,0, , , , , , , , , , , , , , , , , , , , , , , , , , 
-8376016.85712707,683090.267503735,3861,6005,3,95,COCORNÁ,INVIAS,ANTIOQUIA,29,1,12800,21900,43900,62600,62600,https://hermes.invias.gov.co/recursos/Fichas%20Peajes/3861.pdf,El Santuario - Cruce Ruta 45 (Caño Alegre),20100,17600,5,INVIAS,Sur – Norte,KM 03+100 RUTA 6005 Via Santuario - Puerto Triunfo,No cuenta con número,(322 384 5814) este número también sirve para solicitar ambulancia,0,0,0,1000,0,0,0,0,0,0,0,0,0,0,1000,1000,1000,1000,0,0,"Categoria I (Automóviles, camperos y camionetas)",Categoría II Buses,Categoría III - Camiones pequeños de 2 ejes,Categoría III - Camiones grandes de 2 ejes,Categoría V - Camiones de 3 y 4 ejes,Categoría VI - Camiones de 5 ejes,Categoría VII - Camiones de 6 ejes, , , , , , , , , , , , ,Categoría IE, , , , , , 
-8410785.81247287,567838.087251427,3933, ,0,0,QUIEBRA DE VELEZ,DEPARTAMENTO,CALDAS,5.09425115,-75.55537447,3100,33000,37600,0,0,http://hermes.invias.gov.co/carreteras/images/peajes/peaje.jpg,Tres Puertas - Quiebra de Vélez - Manizales,9600,0,3, , , , , ,0,0,0,0,0,0,0,0,0,0,0,0,0,0,0,0,0,0,0,0, , , , , , , , , , , , , , , , , , , , , , , , , , 
-8050834.43636227,1300959.44684733,3894, ,0,0,URIBIA,MUNICIPIO,GUAJIRA,11.60643229,-72.32193594,0,0,0,0,0,http://hermes.invias.gov.co/carreteras/images/peajes/peaje.jpg,Cuatrovias - Uribia,0,0,6, , , , , ,0,0,0,0,0,0,0,0,0,0,0,0,0,0,0,0,0,0,0,0, , , , , , , , , , , , , , , , , , , , , , , , , , 
-8130130.76924146,771916.511464586,3895, ,0,0,LOS SANTOS,DEPARTAMENTO,SANTANDER,6.91715957,-73.03435216,0,0,0,0,0,http://hermes.invias.gov.co/carreteras/images/peajes/peaje.jpg,Piedecuesta - Los Santos,0,0,3,Concesión CONSTRUVICOL S.A,En ambos sentidos, ,037 656 8002 - 316 6058384,037  646 9396 - 320 8003657,0,0,0,0,0,0,0,0,0,0,0,0,0,0,0,0,0,0,0,0, , , , , , , , , , , , , , , , , , , , , , , , , , 
-8219813.45607113,560802.822154796,3826,5501,0,0,EL ROBLE,CONCESION ANI,CUNDINAMARCA,45,-73.83964748,8400,30100,35400,0,0,http://hermes.invias.gov.co/carreteras/images/peajes/peaje.jpg,Bogotá - Chocontá,9300,24300,2,CONCESIÓN BRICEÑO – TUNJA – SOGAMOSO,Sur – Norte // Norte – Sur,Bogotá – Albarracín Km 36,3203409278,3174422284 // 3174341120 //  3174341030 // 3164086968,8600,7200,6000,4600,0,0,0,0,0,0,0,0,0,4300,0,0,0,0,0,0,"Automóviles, Camperos y Camionetas","Buses, Busetas  y Camiones de 2 ejes",Camiones pequeños de dos ejes,Camiones grandes de dos ejes,Camiones de tres y cuatro ejes,, , , , , , , ,Eje Grúa,Eje Adicional Remolque,Eje Adicional, , , ,Especial, , , , , , 
-8270889.12984748,510559.307874416,3892, ,0,0,PEAJE NUEVO SALTO DE TEQUENDAMA,DEPARTAMENTO,CUNDINAMARCA,4.5441315,-74.26847024,9800,13900,26800,41400,44900,http://hermes.invias.gov.co/carreteras/images/peajes/peaje.jpg,El Colegio - El Charquito,11800,11900,3,Concesión Troncal del Tequendama.,Aplica en ambos sentidos,Kilómetro 1.4 Vía Chusacá – El Triunfo – Viotá – El Portillo en la Vereda Charquito (Soacha),3114810850,No cuenta con servicio,0,0,0,0,0,0,0,0,0,0,0,0,0,0,0,0,0,0,0,0,Categoría I Automóviles y Camperos,Categoría  II Camiones y Buses 2 ejes pequeños,Categoría III Camiones y Buses 2 ejes grandes,Categoría  IV 3 y 4 ejes,Categoría  V 5 Ejes,Categoría  VI 6 Ejes,Categoría VII, , , , , , , , , , , , , , , , , , , 
-8415622.17736257,562741.64526177,3929,29CL03,6,1092,SANT'AGUEDA,CONCESION ANI,CALDAS,119,-75.59882027,10400,12600,30700,38400,44600,http://hermes.invias.gov.co/carreteras/images/peajes/peaje.jpg,Chinchiná - La Manuela,12600,12600,2,CONCESIÓN AUTOPISTAS DEL CAFE,Ambos sentidos de circulación,Cruce Guayacanes – La Manuela Km 6,(6) 3282720,3138176567 #850,0,0,0,0,0,0,0,0,0,0,0,0,0,0,0,0,0,0,0,0,Categoría I Automóviles y Camperos,Categoría II Camiones y Buses 2 ejes pequeños,Categoría III Camiones y Buses 2 ejes grandes,Categoría IV 3 y 4 ejes,Categoría V 5 Ejes,Categoría VI 6  Ejes,Categoría VII, , , , , , , , , , , , , , , , , , , 
-8414349.901225,560328.376261087,3957,29CL03-1,1,211,PAVAS (TRINIDAD I),CONCESION ANI,CALDAS,91,-75.58739122,10400,12600,30700,38400,44600,http://hermes.invias.gov.co/carreteras/images/peajes/peaje.jpg,Club Campestre - La Trinidad,12600,12600,2,CONCESIÓN AUTOPISTAS DEL CAFE,Ambos sentidos de circulación,Club Campestre – La Trinidad Km. 1 + 200,(6) 3282720,3138176567 #850,0,0,0,3200,0,0,0,0,0,0,0,0,0,0,3300,3700,3900,0,0,0,Categoría I Automóviles y Camperos,Categoría II Camiones y Buses 2 ejes pequeños,Categoría III Camiones y Buses 2 ejes grandes,Categoría IV 3 y 4 ejes,Categoría V 5 Ejes,Categoría VI 6 ejes,Categoría VII, , , , , , , , , , , , ,Categoría IE,Categoría IIE,Categoría IIIE, , , , 
-8118193.50457551,630761.575156314,3875,6211,13,150,EL CRUCERO,INVIAS,BOYACA,32,1,8700,25700,28900,0,0,https://hermes.invias.gov.co/recursos/Fichas%20Peajes/3875.pdf,Sogamoso - El Crucero,9400,20200,5,INVIAS,Ambos sentidos de circulación,Via Sogamoso Yopal Km 8+900  Jurisdiccion Sogamoso,3102455402-3134819171,No cuenta con servicio,9000,8700,6600,2200,0,0,0,0,0,0,0,0,0,2000,2400,0,0,0,0,0,"Automóviles, camperos, camionetas y microbuses con ejes de llanta sencilla","Buses, busetas, microbuses con eje trasero de doble llanta y camiones de dos ejes.",Vehículos de pasajeros y de carga de tres y cuatro ejes,Vehículos de carga de cinco ejes.,Vehículos de carga de seis ejes., , , , , , , , ,Eje Grúa,Eje Remolque,Eje Adicional, , , ,CAT ESPECIAL IE,CAT ESPECIAL IIE, , , , , 
-8403577.50519537,1157608.01092703,3905, ,0,0,LA HEROICA,DISTRITO,BOLÍVAR,10.34242003,-75.49062651,2900,10700,16400,0,0,http://hermes.invias.gov.co/carreteras/images/peajes/peaje.jpg,Variante Mamonal - Gambote,4600,8200,4,CONVIAL,Ambos sentidos de circulación,Variante Mamonal - Gambote,(57) (5)6609002 - 6607822 - 6609125,(57) (5)6609002 - 6607822 - 6609125,0,0,0,0,0,0,0,0,0,0,0,0,0,0,0,0,0,0,0,0,Categoría I Livianos y Automóviles,Categoría II Buses y Busetas,Categoría III Camiones de 2 Ejes,Categoría IV Camiones de,Categoría V Camiones de más de 5 Ejes, , , , , , , , , , , , , , , , , , , , , 
-8601601.00545715,142741.242895259,3865,2502,14,400,DAZA,INVIAS,NARIÑO,34,1,0,30700,35500,0,0,https://hermes.invias.gov.co/recursos/Fichas%20Peajes/3865.pdf,San Juan de Pasto - Cano,0,23400,5,INVIAS,Norte – Sur,Vía Pasto – Mojarras Km 13 Jurisdicción municipio de Pasto Sector Daza,No tiene,No cuenta con servicio,10100,9800,6700,0,0,0,0,0,0,0,0,0,0,0,0,0,0,0,0,0, ,0,Categoría III Camiones y buses 2 ejes grandes,Categoría IV 3 y 4 ejes,Categoría V 5 ejes, , , , , , , , ,Categoría Eje Grúa,Categoría Eje Remolque,Categoría Eje Adicional, , , , , , , , , , 
-8319068.5566758,490658.170981758,3912, ,0,0,PUBENZA,DEPARTAMENTO,CUNDINAMARCA,4.40331639,-74.73146434,8500,14400,21000,28000,32200,http://hermes.invias.gov.co/carreteras/images/peajes/peaje.jpg,Girardot - Tocaima,9600,10900,3,CONCESIÓN DEVISAB,Norte - Sur // Sur Norte,Vía Chía – La Mesa – Girardot Km 16  Jurisdicción del Municipio de Tocaima,#815 Tigo - 018000953550,#815 Tigo - 018000953550,0,0,0,0,0,0,0,0,0,0,0,0,0,0,0,0,0,0,0,0,Categoría I Automóviles y Camperos,Categoría II Camiones y Buses 2 ejes pequeños,Categoría III Camiones y Buses 2 ejes grandes,Categoría IV 3 y 4 ejes,Categoría V 5 Ejes,Categoría VI 6 Ejes,Categoría VII, , , , , , , , , , , , , , , , , , , 
-8288514.41729376,702138.246998363,3920,4511,9,300,ZAMBITO,INVIAS,SANTANDER,138,1,11100,39400,46300,0,0,https://hermes.invias.gov.co/recursos/Fichas%20Peajes/3920.pdf,Río Ermitaño - La Lizama,14000,32900,5,Concesionaria Ruta Del Sol,Aplica en ambos sentido de circulación,Vía Rio Ermitaño La Lizama Km 6,3165298178, ,10200,10000,7300,0,0,0,0,0,0,0,0,0,0,0,0,0,0,0,0,0,Automóviles y Camperos.,Camiones y Buses 2 ejes.,3 ejes.,4 ejes.,5 ejes, , , , , , , , ,Eje Grúa.,Eje Remolque.,Eje adicional., , , , , , , , , , 
-8267448.20130642,1099808.26623552,3827,8002,67,175,EL DIFÍCIL,CONCESION ANI,MAGDALENA,40,-74.2677508,9200,34100,36600,0,0,http://hermes.invias.gov.co/carreteras/images/peajes/peaje.jpg,Plato – Pueblo Nuevo,11400,24100,2,Concesión (Yuma),Sur – Norte,KM 67+300 Plato – Pueblo Nuevo,3165298176,018000945566 Opción 1,9000,8700,6500,0,0,0,0,0,0,0,0,0,2600,2700,0,0,0,0,0,0,Automóviles y Camperos,Camiones y Buses  2 ejes,3 y 4 Ejes,5 Ejes,6 Ejes, , , , , , , , ,Eje Grua,Eje Remolque,Eje Adicional, , ,CAT ESPECIAL E, , , , , , , 
-8067262.27462894,883414.862285573,3833,0,0,0,EL ESCOBAL,CONCESION ANI,N. DE SANTANDER,42,-72.46945002,2000,2000,2000,0,0,http://hermes.invias.gov.co/carreteras/images/peajes/peaje.jpg,Avenida Demetrio  Mendoza,2000,2000,2,Concesionaria San Simón S.A,Sentido Ureña (Venezuela)-Cúcuta,Avenida Demetrio Mendoza vía a Ureña,(7) 5767878,320 345 2139,2000,0,2000,0,0,0,0,0,0,0,0,0,0,0,0,0,0,0,0,0,Automoviles y Camperos,Camiones y buses 2 ejes pequeños,Camiones y buses 2 ejes grandes,3 y 4 ejes,5 Ejes, , , , , , , , ,Eje Grua,Eje adicional remolque,Eje Adicional, ,Eje Carreño, , , , , , , , 
-8181823.6464761,919465.504429622,3915,7007,14,296,PLATANAL,INVIAS,OCAÑA,94,1,8300,25100,28800,0,0,https://hermes.invias.gov.co/recursos/Fichas%20Peajes/3915.pdf,Aguaclara - Río de Oro,9300,19800,5,Concesión ruta el sol, Sur – Norte Ambos sentidos,Km 14 Vía Aguasclaras – Ocaña,Sin número,Sin servicio,9000,8700,6600,200,0,0,0,0,0,0,0,6200,0,200,200,0,12600,14300,0,0,"Automóviles, camperos y camionetas","Buses, busetas y camiones de 2 ejes",Camiones 3 y 4 ejes,5 ejes,6 Ejes, , , , , , , , ,Eje grúa,Eje adicional remolque,Eje adicional, ,Eje cañero, , , , , , , , 
-8398381.5137851,1146416.38744583,4000,90BLB,17,240,PASACABALLOS,CONCESION ANI,BOLIVAR,0,0,8100,24400,28300,28300,28300, ,Variante de Gambote,8800,18700,2,AUTOPISTAS DEL SOL S.A., Sur - Norte // Norte - Sur,Variante de Gambote, ,321 205 72 27,0,0,0,0,0,0,0,0,0,0,0,0,0,3100,0,7600,0,0,0,0, , , , , , , , , , , , , , , , , , , , , , , , , , 
-8406714.26369188,495371.04920428,10807,4003,16,10,TÚNEL DE LA LÍNEA TOLIMA,INVIAS,Tolima,0,0,8900,26100,29500,0,0,/,La Línea - Cajamarca,9900,20500,5,,,,,310 304 3854,9100,8800,6700,,,,,,,,,,,2000,,,,,,,,,,,,,,,,,,,,,,,,,,,,,,,,
-8414571.45261516,504072.927180607,10806,4003,15,550,TÚNEL DE LA LÍNEA QUINDÍO,INVIAS,Quindío,0,0,8900,26100,29500,0,0,/,Armenia - La Línea,9900,20500,5,,,,,316 570 34 32,,,,,,,,,,,,,,,,,,,,,,,,,,,,,,,,,,,,,,,,,,,,,,
-8191165.04726082,795225.353446703,11206,4513,4,0,LA LIZAMA,ANI,Santander,0,0,13700,26600,40500,50700,58600, ,Barrancabermeja -  La Lizama ubicación km 4,16900,21000,2,Ruta del Cacao,Barrancabermeja -  La Lizama (Aplica en ambos sentidos),La Lizama,Sin Referencia,3103910901 - (57) 685 4666,,,,,,,,,,,,,,,,,,,,,"Automóviles, Camperos y Camioneta",Busetas,Camiones pequeños de ejes,Camiones grandes de 2 ejes,Camiones de 3 y 4 ejes,Camiones de 5 ejes,Camiones de 6 ejes o más,,,,,,,,,,,,,,,,,,,
-8270368.30357605,516891.552860351,3887, ,0,0,MONDOÑEDO,DEPARTAMENTO,CUNDINAMARCA,4.63834846,-74.29408445,11200,15600,44800,61600,70300,http://hermes.invias.gov.co/carreteras/images/peajes/peaje.jpg,La Mesa - Mosquera,13500,13500,3,CONCESIÓN DEVISAB,Norte - Sur // Sur Norte,Vía Chía – La Mesa – Girardot Km 105 Jurisdicción del Municipio de Bojacá,#815  Tigo - 018000953550,#815  Tigo - 018000953550,0,0,0,0,0,0,0,0,0,0,0,0,0,0,0,0,0,0,0,0,Categoría I Automóviles y Camperos,Categoría II Buses y Busetas,Categoría III Camiones y Buses 2 ejes pequeños,Categoría IV Camiones y Buses 2 ejes grandes,Categoría V 3 y 4 ejes Volquetas y Camiones,Categoría VI 5 ejes Volquetas y Camiones,Categoría VII 6 ejes Volquetas y Camiones, , , , , , , , , , , , , , , , , , , 
-8444570.70329741,557198.967568518,3846,2507,24,45,ACAPULCO,CONCESION ANI,RISARALDA,1,-75.85886931,11800,14600,35100,44000,50800,http://hermes.invias.gov.co/carreteras/images/peajes/acapulco.jpg,La Virginia - Remolinos,14600,14600,2,CONCESION PACÍFICO TRES S.A.S  (ODINSA),Aplica en ambos sentidos de circulación,Vía Y de Cerritos  - Cauyá PR2507 Km 24,3219738470,018000423780 – 3219738470,0,0,0,0,0,0,0,0,0,0,0,0,0,0,0,0,0,0,0,0,Categoría I Automóviles y Camperos,Categoría II Camiones y Buses 2 ejes pequeños,Categoría III Camiones y Buses 2 ejes grandes,Categoría IV  3 y 4 ejes,Categoría V 5 Ejes, , , , , , , , ,Categoría Eje Grúa,Categoría Eje Remolque,Categoría Eje Adicional, ,Categoría Eje Cañero, , , , , , , , 
-8078602.05530516,862153.912247424,3930,5505,118,1646,LOS ACACIOS,CONCESION ANI,N. DE SANTANDER,71,-72.57131701,6100,25100,28500,0,0,http://hermes.invias.gov.co/carreteras/images/peajes/peaje.jpg,Pamplona - Cúcuta,8700,19500,2,CONCESIÓN UNIÓN  VIAL RÍO PAMPLONITA,Aplica en ambos sentidos,Km 119+900,(7) 5767878,3203452139,8800,8500,6300,0,0,0,0,0,0,0,0,0,0,0,0,0,0,0,0,0,Automoviles y Camperos,Camiones y buses 2 ejes pequeños,Camiones y buses 2 ejes grandes,3 y 4 ejes,5 Ejes, , , , , , , , ,Eje adicional Grúa,Eje adicional remolque,Eje adicional, , , , , , , , , , 
-8176213.36154709,474777.335796228,3842,6510,29,557,VERACRUZ,CONCESION ANI,META,135,-73.44817429,6700,6650,9600,12900,14450,http://hermes.invias.gov.co/carreteras/images/peajes/peaje.jpg,Cumaral - Barranca de Upía,6650,4250,2,Concesión Vial del Oriente - COVIORIENTE S.A.S,Bidireccional,Vía Cumaral – Paratebueno Km 29+555,3168341260,3178942293  - 018000180818,0,0,0,0,0,0,0,0,0,0,0,0,0,0,0,0,0,0,0,0,"Automóviles, Camperos y Camionetas y microbuses con ejes de llanta sencilla de servicio público","Buses, busetas, microbuses con eje trasero de doble llanta",Camiones pequeños de dos (2) ejes,Camiones grandes de dos (2) ejes,Vehículos de tres (3) y cuatro (4) ejes,Vehículos de cinco (5) ejes,Vehículos de seis (6) ejes, , , , , , , , , , , , , , , , , , , 
-8488487.78463558,442520.149644073,3927,25505,78,131,BETANIA,DEPARTAMENTO,VALLE DEL CAUCA,11,-76.25331342,8200,34000,37700,0,0,http://hermes.invias.gov.co/carreteras/images/peajes/peaje.jpg,Buga - Andalucía,10600,25000,3,PISA Proyectos de Infraestructura S.A., Sur - Norte // Norte - Sur,Vía Cali - Andalucia  Km 78+225,3155602442,3155602442,0,0,0,0,0,0,0,0,0,0,0,0,0,0,0,0,0,0,0,0, , , , , , , , , , , , , , , , , , , , , , , , , , 
-8435301.57146007,594463.141822637,3931,2508,17,150,SAN CLEMENTE,INVIAS,CALDAS,115,1,8700,25700,28900,0,0,https://hermes.invias.gov.co/recursos/Fichas%20Peajes/3931.pdf,Cauyá - La Felisa,9400,20200,5,INVIAS,Ambos sentidos de circulación,Vía Cauyá - El Palo,3102454264,No cuenta con servicio,9000,8700,6600,0,0,0,0,0,0,0,0,0,0,0,0,0,0,0,0,0,Automoviles y camperos,Camiones y buses de 2 ejes pequeños,Camiones y buses de 2 ejes grandes,3 y 4 ejes,5 ejes, , , , , , , , ,Eje grúa,Eje remolque,Eje adicional, , , , , , , , , , 
-8107931.6057044,458212.259647373,3876,4008,16,237,CASETABLA,CONCESION ANI,META,19,-72.83478884,4400,4800,19700,25000,28100,http://hermes.invias.gov.co/carreteras/images/peajes/casetabla.jpg,Puerto López - Puerto Gaitán,4800,4800,2,Concesión Autopistas de los Llanos,Oriente,Vía Puerto López – Puerto Gaitán Km 16+250,3102466017,018000918624 Operadores Claro – Movistar #765,0,0,0,0,0,0,0,0,0,0,0,0,0,0,0,0,0,0,0,0,Automóviles y Camperos,Camiones y Buses 2 ejes pequeños,Camiones y Buses 2 ejes grandes,3 y 4 ejes,5 Ejes,CAT VI,CAT VII, , , , , , , , , , , , , , , , , , , 
-8232350.43000343,741418.490260819,3937,4511,83,900,AGUAS NEGRAS,INVIAS,SANTANDER,2,1,11100,39400,46300,0,0,https://hermes.invias.gov.co/recursos/Fichas%20Peajes/3937.pdf,Río Ermitaño - La Lizama,14000,32900,5,Concesionaria Ruta Del Sol,Aplica en ambos sentido de circulación,Vía Rio Ermitaño La Lizama Km 84,3165298177,No cuenta con servicio,10200,10000,7300,0,0,0,0,0,0,0,0,0,0,0,0,0,0,0,0,0,Automóviles y Camperos.,Camiones y Buses 2 ejes.,3 ejes.,4 ejes.,5 ejes., , , , , , , , ,Eje Grúa.,Eje Remolque.,Eje adicional., , , , , , , , , , 
-8421770.20667659,702401.549034207,3877,0,0,0,SAN CRISTÓBAL,CONCESION ANI,ANTIOQUIA,6.29706501,-75.65404896,16200,51900,62100,0,0,http://hermes.invias.gov.co/carreteras/images/peajes/peaje.jpg,Puente Aurrá - Medellín,18300,39900,2,DESARROLLO VIAL AL MAR SAS,Santa Fe de Antioquia - Medellín,"Oriente Occidente Km 39+600 Occidente Oriente Km 44+800, vía Santa Fe de Antioquia Medellín",(1) 2863300,3176676335   018000400016,6300,0,0,7900,0,0,0,0,0,0,0,0,0,8100,9200,0,0,0,0,0,Automóviles y Camperos,Camiones y Buses 2 Ejes pequeños,Camiones y Buses 2 Ejes grandes,3 y 4 ejes,5 ejes, , , , , , , , , , ,Eje Adicional, , , , , , , , , , 
-8398322.66785324,1159263.77064336,3883,9005,96,420,TURBACO,CONCESION ANI,BOLIVAR,130,-75.44353683,3100,0,0,0,0,http://hermes.invias.gov.co/carreteras/images/peajes/peaje.jpg,Cruz del Viso - Cartagena,7600,9300,2,Ruta Caribe,Ambos sentidos de circulación,Km 60+00 y 68+00 Ruta 9005 Troncal de Occidente,3212057230,3212057227,0,0,0,0,0,0,0,0,0,0,0,0,0,0,3100,0,0,0,0,0,Automóviles y Camperos,Camiones y Buses 2 ejes Pequeños,Camiones y Buses 2 ejes Grandes, , , , , , , , , , , , , , , , , , , , , , , 
-8362923.61791815,1082882.6610552,3849,2515,60,667,EL CARMEN,CONCESION ANI,BOLIVAR,38,-75.12542106,8800,25600,28800,0,0,http://hermes.invias.gov.co/carreteras/images/peajes/el_carmen.jpg,Puerta de Hierro - Carreto,9600,20100,2,Autopista de la sabana,Ambos sentidos de circulación,Km 70+500 Troncal de Occidente Ruta 2515 Vía Sincelejo – Calamar,3162954845,3162954845 - #270 Claro,8700,8400,6400,1400,0,0,0,0,0,0,0,0,0,1400,1400,0,0,0,0,0,Automóviles y Camperos,Camiones y Buses 2 ejes Pequeños,Camiones y Buses 2 ejes Grandes,3 y 4 Ejes,5 Ejes, , , , , , , , ,Eje grúa,Eje remolque,Eje adicional, , , ,Categoría especial IE,Categoría especial IIE, , , , , 
-8209218.65437038,638687.723318142,3953,45A05,66,500,SABOYÁ,INVIAS,BOYACÁ,112,1,8600,30100,35200,0,0,https://hermes.invias.gov.co/recursos/Fichas%20Peajes/3953.pdf,Ubaté - Puente Nacional,9300,24200,5,INVÍAS,Ambos sentidos de circulación,Vía Ubate Puente Nacional  Km 66+200 Jurisdicción Saboyá,Sin numero,Sin numero,10200,10000,7000,2300,0,0,0,0,0,0,0,0,0,2100,2300,0,0,0,0,0,Automóviles y Camperos,Camiones y Buses 2 ejes pequeños,Camiones y Buses 2 ejes grandes,3 y 4,5 ejes, , , , , , , , ,Eje Grúa,Eje Adicional Remolque,Eje Adicional, , , ,CAT ESPECIAL IE,CAT ESPECIAL IIE, , , , , 
-8231579.06519171,536024.535721818,3850,5009,0,0,LA CABAÑA,CONCESION ANI,CUNDINAMARCA,61,-73.94553287,9600,34300,46900,47300,0,http://hermes.invias.gov.co/carreteras/images/peajes/la_cabana.jpg,Bogotá (Los Patios) - Guasca,15100,23400,2,PERIMETRAL ORIENTAL DE BOGOTÁ S.A.S,Norte – Sur,La Calera – Briceño Km 21+800,3112178121,"3102399451, 3162340275, #762 y 018000181762",8700,8400,6400,0,0,0,0,0,0,0,0,6700,0,0,10300,0,0,0,0,0,Categoría I Automóviles y Camperos,Categoría II Camiones y Buses  2 ejes pequeños,Categoría III Camiones y Buses 2 ejes grandes,Categoría IV 3 y 4 ejes,Categoría V 5 Ejes,Categoría VI 6 Ejes, , , , , , , ,Categoría Eje Grúa,Categoría Eje Adicional Remolque,Categoría Eje Adicional, ,Categoría Eje Cañero, , ,Categoría IIE, , , , , 
-8238819.98718758,519737.678189404,3851,5009,21,639,LOS PATIOS,CONCESION ANI,CUNDINAMARCA,90,-74.01057918,9600,34300,46900,47300,0,http://hermes.invias.gov.co/carreteras/images/peajes/patios.jpg,Bogotá (Los Patios) - Guasca,15100,23400,2,INVIAS – VIPSA,Sur – Norte,La Calera – Briceño Km 0+050,3118179035,"3102399451, 3162340275, #762 y 018000181762",8700,8400,6400,4900,0,0,0,0,0,5400,0,6700,0,5100,10300,0,0,0,0,0,Categoría I Automóviles y Camperos,Categoría II Camiones y Buses 2 ejes pequeños,Categoría III Camiones y Buses 21 ejes grandes,Categoría IV 3 y 4 ejes,Categoría V 5 Ejes,Categoría VI 6 Ejes, , , , , , , ,Categoría Eje Grúa,Categoría Eje Adicional Remolque,Categoría Eje Adicional, ,Categoría Eje Cañero, ,Categoría IE,Categoría IIE, , , , , 
-8305962.38425713,612878.89009279,3852,5008B,0,0,EL KORÁN,CONCESION ANI,CUNDINAMARCA,5.49727588,-74.61350965,12800,53100,66000,78300,0,http://hermes.invias.gov.co/carreteras/images/peajes/peaje.jpg,El Korán - Guaduas,18000,25400,2,CONCESIÓN HELIOS,Sur – Norte Variante Guaduas - Intersección Koran, Bogotá – Medellín - Norte,(1) 5188489,3185166166 / 018000914181,9100,8800,6500,2700,0,0,0,0,0,0,0,0,0,2800,2800,0,0,0,0,0,Categoría I Automóviles y Camperos,Categoría II Camiones y Buses 2 ejes pequeños,Categoría III Camiones y Buses 2 ejes grandes,Categoría IV 3 y 4 ejes,Categoría V 5 Ejes,Categoría VI 6 Ejes, , , , , , , ,Eje Grúa,Eje Adicional Remolque,Eje Adicional, , , ,Categoría Especial IE,Categoría Especial IIE, , , , , 
-8415093.64188244,665660.181991087,3856,2509,38,824,VERSALLES (PRIMAVERA),CONCESION ANI,ANTIOQUIA,96,-75.59404508,8300,24400,27400,0,0,http://hermes.invias.gov.co/carreteras/images/peajes/primavera.jpg,La Pintada - Primavera,9000,19200,2,CONCESION LA PINTADA S.A.S. (ODINSA),Sur – Norte,"KM 38+800 RUTA  2509, Via Medellin - La Pintada",3173673153,3185018100  - #272 Claro Movistar y Tigo,8700,8400,6400,0,0,0,0,0,0,0,0,0,0,0,0,0,0,0,0,0,Categoría I Automóviles y Camperos,Categoría II Camiones y Buses 2 Ejes,Categoría III - 3 ejes,Categoría IV - 4 ejes,Categoría V - 5 ejes, , , , , , , , ,Categoría Eje Grúa,Categoría Eje Remolque,Categoría Eje adicional, ,Categoría Eje Cañero, , , , , , , , 
-8406366.49291972,705854.776942768,3858,6004,6,950,GUARNE,CONCESION ANI,ANTIOQUIA,55,-75.51551355,12000,20900,41600,59300,59300,http://hermes.invias.gov.co/carreteras/images/peajes/peaje.jpg,Medellín - Santuario,20900,16700,2,Concesión Devimed,Oriente,Km 7 Autopista Medellín - Bogotá,018000518427  - 408-08-42 - 3860085,#618 - 018000518427 -  (4) 3860085,0,0,0,8800,0,0,0,0,0,0,0,0,0,9000,0,0,0,0,0,0,Automóviles y camperos y camionetas,Buses,Camiones pequeños de 2 ejes,Camiones grandes de 2 ejes,Camiones de 3 y 4 ejes,Camiones de 5 ejes,Camiones de 6 ejes, , , , , , , , , , , , ,Categoría Especial, , , , , , 
-8382573.18095247,310212.000491299,3857,4505,98,628,LOS CAUCHOS,CONCESION ANI,HUILA,72,-75.30193609,8300,24400,27400,0,0,http://hermes.invias.gov.co/carreteras/images/peajes/los_cauchos.jpg,Garzón - Neiva,9000,19200,2,Concesión Rodovias Colombia S.A.S,Aplica en ambos sentidos de circulación,Vía Garzon – Neiva Km 98+499 Jurisdicción Municipio de Rivera,320 995 5541,311 260 50 25  - #296,8700,8400,6400,5100,0,0,0,0,0,0,0,6700,0,5300,2200,0,0,0,0,0,Categoría I Automóviles y Camperos,Categoría II Camiones y Buses 2 ejes pequeños,Camiones y Buses 2 ejes grandes,3 y 4 ejes,5 Ejes, , , , , , , , ,Eje Grúa,Eje Remolque,Eje Adicional, , , ,Categoría IE, , , , , , 
-8417601.62325582,550494.451740419,3870,2902,20,762,TARAPACÁ I,CONCESION ANI,RISARALDA,122,-75.61656814,11500,15200,38100,50400,56300,http://hermes.invias.gov.co/carreteras/images/peajes/peaje.jpg,La Romelia - Río Campo Alegre,15200,15200,2,CONCESIÓN AUTOPISTAS DEL CAFE,Ambos sentidos de circulación,Vía Pereira – Manizales Km. 20 + 200,(6) 3282720,3138176567 #850,0,0,0,0,0,0,0,0,0,0,0,0,0,0,0,0,0,0,0,0,Categoría I Automóviles y Camperos,Categoría II Camiones y Buses 2 ejes pequeños,Categoría III Camiones y Buses 2 ejes grandes,Categoría IV 3 y 4 ejes,Categoría V 5 Ejes,Categoría VI 6 Ejes,Categoría VII, , , , , , , , , , , , , , , , , , , 
-8256394.50960648,1187789.28057089,3916,4518,48,678,TUCURINCA,CONCESION ANI,MAGDALENA,128,-74.1684538,8500,28800,33400,0,0,http://hermes.invias.gov.co/carreteras/images/peajes/peaje.jpg,Paso Nacional por Aracataca - Ye de Ciénaga,9400,21900,2,Concesión (Yuma),Norte – Sur,KM 50 Rio Ariguani – Ye de Cienaga,3176486588,018000945566 Opción 1,10300,9800,7000,0,0,0,0,0,0,0,0,0,0,0,0,11100,14600,16800,0,0,Automóviles y Camperos,Camiones y Buses 2 ejes pequeños,Camiones y Buses 2 ejes grandes,3 y 4 Ejes,5 Ejes, , , , , , , , ,Eje Grua,Eje Adicional Remolque,Eje Adicional, , , , , , , , , , 
-8291430.27138899,544278.43541459,3962, ,0,0,GUAYABAL,DEPARTAMENTO,CUNDINAMARCA,56,-74.4831854,12400,19600,35300,45700,55000,http://hermes.invias.gov.co/carreteras/images/peajes/peaje.jpg,Guayabal de Síquima - Cambao,16800,14100,3,CONCESIÓN PANAMERICANA,Norte - occidente // occidente - norte,Peaje Rio Bogotá – Facatativa – Villeta – Viani – Cambao Km 63 Jurisdicción del Municipio de Guayabal,3184666166,3138879089,0,0,0,7900,0,0,0,0,0,0,0,0,0,0,11900,9700,13300,24500,32100,0,Categoría I Automóviles y Camperos,Categoría II Camiones y Buses 2 ejes pequeños,Categoría III Camiones y Buses 2 ejes grandes,Categoría IV 3 y 4 ejes,Categoría V 5 Ejes,Categoría VI 6 Ejes,Categoría VII, , , , , , , , , , , , ,Categoría IE,Categoría IIE,Categoría IIIE,Categoría IVE,Categoría VE,Categoría VIE, 
-8120063.41075399,521397.511935057,3955,6511,0,0,SAN PEDRO,CONCESION ANI,CASANARE,118,-72.9437707,8400,12250,13700,0,0,http://hermes.invias.gov.co/carreteras/images/peajes/san_pedro.jpg,Barranca de Upía - Monterrey,4450,9600,2,Concesiónaria Vial del Oriente - COVIORIENTE S.A.S,Bidireccional,Villanueva - Monterrey Km.15+000,3168341260,3178942293  - 018000180818,8700,8400,6400,2300,0,0,0,0,0,0,0,0,0,2400,0,0,0,0,0,0,"Automóviles, Camperos y Camionetas y microbuses con ejes de llanta sencilla de servicio público","Buses, busetas, microbuses con eje trasero de doble llanta",Camiones pequeños de dos (2) ejes,Camiones grandes de dos (2) ejes,Vehículos de tres (3) y cuatro (4) ejes, , , , , , , , ,Eje Grúa,Eje Remolque,Eje Adicional, , , ,Categoría IE, , , , , , 
-8179038.41188839,1054630.85460514,3964,4901,17,600,RINCÓN HONDO,INVIAS,CESAR,9.43145278,1,9900,12100,13100,37600,43100,https://hermes.invias.gov.co/recursos/Fichas%20Peajes/3964.pdf,San Roque - La Paz,10500,11400,5,INVIAS,Aplica en ambos sentidos de circulación,Tramo que cubre:Vía Rincón Hondo - Agustín Codazzi,No cuenta con número,No cuenta con servicio,0,0,0,2900,,0,0,0,0,0,0,0,0,0,0,0,0,25900,0,0,"Automóviles, camperos y camionetas",Buses,Camiones pequeños de 2 ejes,Camiones grandes de 2 ejes,Camiones de 3 ejes,Camiones de 4 ejes,Camiones de 5 ejes,Camiones de 6 ejes, , , , , , , , , , , ,Categoría especial IE, , , ,Categoría especial VE, , 
-8444692.43750581,534223.307343096,3919,2506,85,867,CERRITOS II,INVIAS,RISARALDA,22,1,12700,47000,53800,0,0,http://hermes.invias.gov.co/carreteras/images/peajes/peaje.jpg,La Victoria - Cartago - Cerritos,14500,35900,5,Concesionaria de Occidente,Sur – Norte,Vía Andalucía – Y de Cerritos PR2506 Km 86,3128509233 - 3113042754 - 3132158,No cuenta con servicio,15800,15600,10700,2700,0,0,0,0,0,0,0,0,0,2600,9300,0,0,0,0,0,Categoría I Automóviles y Camperos,Categoría II Camiones y Buses 2 ejes pequeños,Categoría III Camiones y Buses 2 ejes grandes,Categoría IV 3 y 4 ejes,Categoría V 5 Ejes, , , , , , , , ,Categoría Eje Grúa,Categoría Eje Adicional Remolque,Categoría Eje Adicional, , , ,Categoría Especial IE,Categoría Especial IIE, , , , , 
-8433984.24677361,964414.704728552,3921,2513,32,672,PURGATORIO,CONCESION ANI,CORDOBA,105,-75.76368712,13100,19300,34900,55600,64100,http://hermes.invias.gov.co/carreteras/images/peajes/peaje.jpg,Caucasia - Planeta Rica,19300,19300,2,Concesión Ruta al Mar,Aplica en ambos sentido de circulación,Via Planeta Rica – Montería Km 32+500 Recorrido 49 KMS,3116346239 - 3116346139,0947911207,0,0,0,0,0,0,0,0,0,0,0,0,0,11300,15700,0,0,0,0,0,Automóviles y Camperos,Camiones y Buses 2 ejes Pequeños,Camiones y Buses 2 ejes Grandes,3 y 4 Ejes,5 Ejes,Categoría VI,Categoría VII, , , , , , ,Eje grúa,Eje remolque,Eje adicional, , , , , , , , , , 
-8191279.886006,589770.058465303,3935,5501,80,2261,ALBARRACÍN,CONCESION ANI,BOYACÁ,3,-73.58360233,8000,14150,16650,0,0,http://hermes.invias.gov.co/carreteras/images/peajes/peaje.jpg,Chocontá - Tunja,4350,11400,2,Concesión Briceño - Tunja - Sogamoso,Ambos sentidos de circulación,"Vía Bogotá Tunja KM 82+200, Jurisdicción Villa Pinzón (Cundinamarca)",3203409278,3174422284 // 3174341120 // 3174341030 // 3164086968,8200,6800,5700,0,0,0,0,0,0,0,0,0,0,0,0,0,0,0,0,0,"Automóviles, Camperos y Camionetas","Buses, Busetas y Camiones de 2 ejes",Camiones de tres y cuatro ejes,Vehículos de carga de cinco (5) ejes,Vehículos de carga de seis (6) ejes, , , , , , , , ,Eje Grúa,Eje Remolque,Eje Adicional, , , , , , , , , , 
-8123599.989343,1209435.64785316,3981,4902,61,400,SAN JUAN,INVIAS,GUAJIRA,116,1,8900,26100,29500,0,0,https://hermes.invias.gov.co/recursos/Fichas%20Peajes/3981.pdf,Río Pereira - Buenavista,9900,20500,5,INVIAS,Aplica en ambos sentido de circulación,Ubicación: 61+400Tramo que cubre:Vía La Paz – Distracción,No cuenta con número,No cuenta con servicio,7100,6900,5200,2900,0,0,0,0,0,,0,0,0,2900,0,0,0,25900,0,0,"Automóviles, camperos y caminonetas",Buses,Camiones pequeños de 2 ejes,Camiones grandes de 2 ejes,Camiones de 3 ejes,Camiones de 4 ejes,Camiones de 5 ejes, , , , , , ,Eje grúa,Eje adicional remolque,Eje adicional, , , ,Categoría especial IE, , , ,Categoría especial VE, , 
-8416466.99956855,1058534.58578466,3934,9004,44,129,CAIMANERA,CONCESION ANI,CORDOBA,9.49011171,-75.59481605,12800,18900,20200,29400,29500,http://hermes.invias.gov.co/carreteras/images/peajes/peaje.jpg,Coveñas  - San Onofre,19800,18900,2,Concesión Ruta al Mar,Sur – Norte,Vía Coveñas – Tolú Km 41+150 (Puerto Viejo),3153483271,3216177100,0,0,0,0,0,0,0,0,0,0,0,0,700,700,700,700,700,700,700,700,"Automóviles ,camperos y camionetas",Buses,Camiones pequeños de 2 ejes,Camiones grandes de 2 ejes,Camiones de 3 y 4 ejes,Camiones 5 ejes,Camiones 6 ejes, , , , , , , , , , , ,"CAT ESPECIAL I, II ,III, IV, V, VI, VII", , , , , , , 
-8555032.51960421,243732.037308954,3975,2503,61,300,EL BORDO,INVIAS,CAUCA,37,1,8900,26100,29500,0,0,https://hermes.invias.gov.co/recursos/Fichas%20Peajes/3975.pdf,Mojarras - Popayán,9900,20500,5,INVIAS,Sur – Norte // Norte – Sur,Kilometro 60+800 Vía Panamericana Mojarras – Popayan,3112363938 / 2800138,No cuenta con servicio,9000,8700,6600,0,0,0,0,0,0,0,0,0,0,0,0,0,0,0,0,0,Categoría I Automóviles y camperos,Categoría II Camiones y buses 2 ejes pequeños,Categoría III Camiones y buses 2 ejes grandes,Categoría IV 3 y 4 ejes,Categoría V 5 ejes, , , , , , , , ,Categoría Eje Grúa,Categoría Eje Remolque,Categoría Eje Adicional, , , , , , , , , , 
-8408101.11151916,686008.640819699,3932,5601,0,0,LAS PALMAS,CONCESION ANI,ANTIOQUIA,68,-75.53125739,8700,10500,23300,31400,35100,http://hermes.invias.gov.co/carreteras/images/peajes/peaje.jpg,Glorieta Las Palmas - La Unión,10500,10500,2,Concesión Túnel Aburrá - Oriente S.A.,Oriente – Occidente,Km. 5 RUTA 5601 Vía Medellín -  La Ceja,(4) 4446178 - 2228085 - 4602225,(4) 4446178 - 2228085 - 4602225,0,0,0,6400,0,0,0,0,0,0,0,0,0,6500,200,0,0,0,0,0,Automóviles y Camperos,Buses,Camiones pequeños de 2 ejes,Camiones grandes de 2 ejes,Camiones de 3 y 4 ejes,Categoría VI,Categoría VII, , , , , , , , , , , , ,Categoría Especial I,Categoría Especial II, , , , , 
-8135262.7478257,738321.972062768,3986,45A07,11,320,SAN GIL - CURITÍ,INVIAS,SANTANDER,33,1,8600,30100,35200,0,0,https://hermes.invias.gov.co/recursos/Fichas%20Peajes/3986.pdf,San Gil - Bucaramanga,9300,24200,5,Invias, ,VÍA BUCARAMANGA - SAN GIL,Sin Numero,Sin Numero,10200,10000,7000,6400,0,0,0,0,0,0,0,0,0,6000,0,0,0,0,0,0,Automóviles y Camperos.,Camiones y Buses 2 ejes Pequeños.,Camiones y Buses 2 ejes Grandes.,3 y 4 ejes.,5 ejes., , , , , , , , ,Eje Grúa.,Eje Remolque.,Eje adicional., , , ,CATEGORIA ESPECIAL IE., , , , , , 
-8293449.92376725,724758.415522034,3952,6206,85,295,PUERTO BERRÍO,CONCESION ANI,ANTIOQUIA,102,-74.50138816,8500,24800,27900,0,0,http://hermes.invias.gov.co/carreteras/images/peajes/puerto_berrio.jpg,Cisneros - Puerto Berrío (Incluye el Puente sobre el Río Magdalena),9300,19500,2,Concesión Autopistas del Río Magdalena,Aplica en ambos sentido de circulación,Vía Alto de Dolores - Puerto Berrío,3183729221,0348326778,8700,8400,6400,2000,0,0,0,0,0,0,0,0,0,2100,2300,0,0,0,0,0,Automóviles y Camperos,Camiones y Buses 2 Ejes pequeños,Camiones y Buses 2 ejes grandes,3 y 4 ejes,5 ejes, , , , , , , , ,Eje grúa,Eje remolque,Eje adicional, , , ,Categoría especial IE,Categoría especial IIE, , , , , 
-8328962.65216446,579826.16299064,3940,5007,35,75,HONDA,CONCESION ANI,TOLIMA,57,-74.82034451,10700,12400,26500,36200,39200,http://hermes.invias.gov.co/carreteras/images/peajes/honda.jpg,Fresno - Honda,11400,11900,2,Concesionaria Alternativas Viales SAS.,Norte – Sur  / Sur - Norte,Km 35 + 100 Vía Mariquita – Honda,3506666383 - 3506666384 - 3506666385,350 666-6375 - 350666-6386,0,0,0,5200,0,0,0,0,0,0,0,0,0,5400,0,0,0,0,0,0,Automóviles y camperos,Buses y Busetas / Camiones pequeños hasta 4.5 toneladas,Camiones y buses 2 ejes grandes,Camiones de 3 y 4 ejes,Camiones de 5 ejes, , , , , , , , , , , , , , , , , , , , , 
-8037950.54391982,615985.581380598,3984,6513,34,900,LA NEVERA,INVIAS,CASANARE,145,0,7500,21800,24500,0,0, ,Paz de Ariporo - Yopal,8100,17200,5,INVÍAS,Bidireccional,Paz de Ariporo - Yopal Km. 34+900,No tiene,No cuenta con servicio,0,0,0,1100,0,0,0,0,0,0,0,0,0,0,1800,0,0,0,0,0,Automóviles y Camperos,Camiones y Buses 2 ejes pequeños,Camiones y Buses 2 ejes grandes,3 y 4 ejes,Categoría V 5 Ejes, , , , , , , , , , , , , , ,Categoría Especial IE,Categoría Especial IIE, , , , , 
-8473465.70615317,473817.808009247,3988,2506,12,296,LA URIBE,DEPARTAMENTO,VALLE DEL CAUCA,4.25300154,-76.11906914,8400,34300,38000,0,0,http://hermes.invias.gov.co/carreteras/images/peajes/peaje.jpg,Andalucía - La Paila -La Victoria,10800,25300,3,PISA Proyectos de Infraestructura S.A.,Norte – Sur  / Sur - Norte,Vía Andalucía – Cerritos Km 12+300,3155602442,2238660 - 3155602442,0,0,0,0,0,0,0,0,0,0,0,0,0,0,0,0,0,0,0,0,Categoría I Automóviles y Camperos,Categoría II Camiones y Buses 2 ejes pequeños,Categoría III Camiones y Buses 2 ejes grandes,Categoría IV 3 y 4 ejes,Categoría V 5 Ejes,Categoría VI 6 Ejes,Categoría VII, , , , , , , , , , , , , , , , , , , 
-8415752.96173424,601077.678747441,3949,2508,63,434,SUPÍA,CONCESION ANI,CALDAS,121,-75.59999513,8300,24400,27400,0,0,http://hermes.invias.gov.co/carreteras/images/peajes/supia.jpg,La Felisa - La Pintada,9000,19200,2,Concesión Pacífico Tres,Ambos sentidos de circulación,Vía La Felisa – La Pintada,3219738470,LINEA GRATUITA: 018000423780 LINEA CELULAR: 3219738470,8700,8400,6400,0,0,0,0,0,0,0,0,6700,0,0,0,0,0,0,0,0,Categoría I Automóviles y Camperos,Categoría II Camiones y Buses 2 ejes pequeños,Categoría III Camiones y Buses 2 ejes grandes,Categoría IV 3 y 4 ejes,Categoría V 5 Ejes, , , , , , , , ,Categoría Eje Grúa,Categoría Eje Remolque,Categoría Eje Adicional, , , , , , , , , , 
-8342838.73255668,1142423.54470582,3950,2515,131,39,CALAMAR,CONCESION ANI,ATLANTICO,15,-74.94499546,8300,24400,27400,0,0,http://hermes.invias.gov.co/carreteras/images/peajes/calamar.jpg,Carreto - Calamar,9000,19200,2,Concesión Montes de Maria,Ambos sentidos de circulación,Km 131 Ruta 2515 Troncal de Occidente,3162954845,3162954845 - #270 Claro,8700,8400,6400,2700,0,0,0,0,0,0,0,0,0,2800,0,0,0,0,0,0,Automóviles y Camperos,Camiones y Buses 2 ejes Pequeños,Camiones y Buses 2 ejes Grandes,3 y 4 Ejes,5 Ejes, , , , , , , , ,Eje grúa,Eje remolque,Eje adicional, , , , , , , , , , 
-8327693.67208569,1095314.1458032,3941,8002,0,323,PUENTE PLATO,CONCESION ANI,MAGDALENA,101,-74.80894507,9200,34100,36600,0,0,http://hermes.invias.gov.co/carreteras/images/peajes/peaje.jpg,Plato – Pueblo Nuevo,11400,24100,2,Concesión (Yuma),Sur – Norte,KM 0+150  Vía Plata – Pueblo Nuevo,3165280403,018000945566 Opción 1,9000,8700,6500,0,0,0,0,0,0,0,0,0,2600,2700,0,0,0,0,0,0,Automóviles y Camperos,Camiones y Buses 2 ejes,3 y 4 Ejes,5 Ejes,6 Ejes, , , , , , , , ,Eje Grua,Eje Remolque,Eje Adicional, , ,CAT ESPECIAL E, , , , , , , 
-8382549.08506945,896980.248222443,3945,2513,11,831,LA APARTADA,CONCESION ANI,CORDOBA,60,-75.30171963,13100,19300,34900,55600,64100,http://hermes.invias.gov.co/carreteras/images/peajes/la_apartada.jpg,Caucasia - Planeta Rica,19300,19300,2,Concesión Ruta al Mar,Sur – Norte,Vía Caucasia – Planeta Rica  Km 12,3102467118,3216177100,0,0,0,0,0,0,0,0,0,0,0,0,0,0,0,0,0,0,0,0,"Automóviles, Camperos y Camionetas",Buses,Camiones pequeños de 2 ejes,Camiones grandes de 2 ejes,Camiones de 3 y 4 ejes,Camiones de 5 ejes,Camiones de 6 ejes, , , , , , , , , , , , , , , , , , , 
-8188663.40386265,903846.174621179,3995,4514,39,653,MORRISON,INVIAS,OCAÑA,80,1,10000,28900,32900,0,0,https://hermes.invias.gov.co/recursos/Fichas%20Peajes/3995.pdf,San Alberto - La Mata,10900,22600,5,Concesión ruta el sol,Norte – Sur – Norte,Km 28+500 Vía San Alberto – Aguaclara,3165280395,No cuenta con servicio,10200,10000,7300,0,0,0,0,0,0,0,0,0,0,0,0,0,0,0,0,0,Automóviles y camperos,Camiones y buses de 2 ejes,3 Ejes,4 Ejes,5 Ejes, , , , , , , , ,Eje grúa,Eje Remolque,Eje adicional, , , , , , , , , , 
-8256731.07807564,528773.845821914,3911, ,0,0,LA TEBAIDA,DEPARTAMENTO,CUNDINAMARCA,4.74466731,-74.17163204,11200,15600,34500,42400,44800,http://hermes.invias.gov.co/carreteras/images/peajes/peaje.jpg,Funza - Cota,13500,13500,3,CONCESIÓN DEVISAB,Sur - Norte // Norte - Sur,Kilómetro 8 Vía Mosquera - Chía Jurisdicción del Municipio de Funza,*815 - 018000953550,*815 - 018000953550,0,0,0,0,0,0,0,0,0,0,0,0,0,0,0,0,0,0,0,0,Categoría I Automóviles y Camperos,Categoría II Buses y Busetas,Categoría III Camiones y Buses 2 ejes pequeños,Categoría IV Camiones y Buses 2 ejes grandes,Categoría V Camiones de 3 y 4 ejes,Categoría VI Volquetas y Camiones de 5 ejes,Categoría VII 6 ejes Volquetas y Camiones, , , , , , , , , , , , , , , , , , , 
-8258241.74245372,532765.685009611,3943,5008,135,913,SIBERIA,CONCESION ANI,CUNDINAMARCA,120,-74.18504777,10000,16000,28100,37700,41400,http://hermes.invias.gov.co/carreteras/images/peajes/peaje.jpg,Villeta - Bogotá,14300,12000,2,CONCESIÓN SABANA DE OCCIDENTE,Ambos sentidos de circulación,Bogotá (El Cortijo) – Siberia – La Punta – El Vino – Villeta,5939260 – 3185577768 – 3102613190 - 3002149460,5939260,0,0,0,5600,5200,7200,0,0,0,0,0,0,0,5700,8200,6700,9200,0,0,0,"Categoría I Automóviles, Camionetas y Camperos",Categoría II Buses y Busetas,Categoría III Camiones pequeños 2 ejes,Categoría IV Camiones grandes 2 ejes,Categoría V Camiones de 3 y 4 ejes,Categoría VI Camiones de 5 ejes,Categoría VII Camiones de 6 o más ejes,"Categoría VIII Autos, Camionetas y Camperos (S. Publico)",Categoría IX Buses/Busetas (S. publico), , , , , , , , , , ,"Categoría IE Autos, Camionetas, Camperos (S. particular)","Categoría IIE Buses, Busetas (S. particular)",Categoría IIE Camión pequeño 2 ejes,Categoría IVE Camión grande 2 ejes, , , 
-8212618.25332409,448569.016085496,3853,6509,54,629,OCOA,CONCESION ANI,META,83,-73.775205,9700,23300,34600,46000,50000,http://hermes.invias.gov.co/carreteras/images/peajes/peaje.jpg,Ye de Granada - Paso por el Puente sobre el Río Ocoa,19400,13300,2,Concesión Autopistas de Los Llanos,Sur,Vía Villavicencio – Granada Km 54+450,(8) 6700868 – 3138860370 - 018000918624 - #76,(578) 668 49 90-91,0,0,0,0,0,0,0,0,0,0,0,0,3500,3600,0,0,0,0,0,0,"Automóviles, Camperos y Camionetas",Camiones y Buses con eje trasero doble llanta,Camiones de 3 y 4 ejes,Camiones de 5 ejes,Tracto camiones,6 Ejes,CAT VIII, , , , , , , , , , , ,CAT Especial, , , , , , , 
-8245409.6210329,495556.964043865,3910,4006,4,122,EL BOQUERÓN I,CONCESION ANI,CUNDINAMARCA,36,-74.07337975,11900,47100,52900,58800,70500,http://hermes.invias.gov.co/carreteras/images/peajes/peaje.jpg,Bogotá (El Portal) - Villavicencio,35300,17800,2,COVIANDINA S.A.S.,Occidente – Oriente // Oriente – Occidente,Caqueza – Guayabetal Km 4+100,3123063223 - 3123030336 – 3105851322,3123060332 - 3105851322 -3105851325 y #713,0,0,0,400,0,0,0,1600,6100,0,0,0,0,400,11500,400,0,0,0,0,Categoría I Automóviles y Camperos,Categoría II  Camiones y buses 2 ejes pequeños,Categoría III  Camiones y buses 2 ejes grandes,Categoría IV  3 y 4 Ejes,Categoría V  5 Ejes,Categoría VI  6 Ejes,Categoría VII, , , ,Categoría IEE,Categoría IEEE, , , , , , , ,Categoría IE,Categoría IIE,Categoría IIIE, , , , 
-8534372.28056777,419193.404191304,3980,4001,63,228,LOBOGUERRERO,INVIAS,VALLE DEL CAUCA,70,1,8400,29800,33800,0,0,http://hermes.invias.gov.co/carreteras/images/peajes/peaje.jpg,Cruce Ruta 40 (Loboguerrero) - Buga,9400,22700,5,CONSORCIO NQS,Norte – Sur  / Sur - Norte,VÍA BUENAVENTURA - BUGA KM 63+700 Tramo que cubre: Desde el PR 63+310 en Loboguerrero y finaliza en el PR 118+418 en Buga,3228171095,3228171095,10600,21600,6500,0,0,0,0,0,0,0,0,6600,0,600,600,0,0,0,0,0,Automóviles y Camperos,Camiones y Buses 2 ejes pequeños,Camiones y Buses 2 ejes grandes,3 y 4 ejes,5 Ejes, , , , , , , , ,Eje Grúa,Eje Adicional Remolque,Eje Adicional, ,Eje Cañero, , , , , , , , 
-8207092.79017352,468083.403823903,3885,4006,72,40,PIPIRAL,CONCESION ANI,META,93,-73.72128811,16600,39400,43000,65800,85100,http://hermes.invias.gov.co/carreteras/images/peajes/peaje.jpg,Bogotá (El Portal) - Villavicencio,33000,22500,2,COVIANDINA S.A.S.,Occidente,Vía Villavicencio – Puente Susumuco Km 78+020,3214698772 - 3105851322,3123060332 - 3105851322 -3105851325 y #713,0,0,0,3300,0,0,0,3400,3400,0,0,0,0,3400,0,0,0,0,0,0,Categoría I Automóviles y Camperos,Categoría II Camiones y Buses 2 ejes pequeños,Categoría III Camiones y Buses 2 ejes grandes,Categoría IV 3 y 4 Ejes,Categoría V 5 Ejes,Categoría VI 6 Ejes,Categoría VII, , , ,CAT IEE,CAT IEEE, , , , , , , ,CAT IE,No aplica,No aplica,No aplica,No aplica, , 
-8348622.72387003,501814.744950155,3983,4305,19,780,ALVARADO,CONCESION ANI,TOLIMA,6,-74.99163244,10700,12400,26500,36200,39200,http://hermes.invias.gov.co/carreteras/images/peajes/alvarado.jpg,Ibagué - Mariquita,11400,11900,2,Concesionaria Alternativas Viales  S.A.S,"Norte-Sur, y, Sur-Norte","Kilómetro 20+100 metros vía Ibagué-,Mariquita",3506666383 - 3506666384 - 3506666385,350 666-6375 - 350666-6386,0,0,0,7200,0,0,0,0,0,0,0,0,0,7400,0,0,0,0,0,0,Automóviles y Camperos,Buses y Busetas / Camiones pequeños hasta 4.5 toneladas,Camiones y buses 2 ejes grandes,Camiones de 3 y 4 ejes,Camiones de 5 ejes,Camiones de 6 ejes, , , , , , , , , , , , , , , , , , , , 
-8357285.98958261,729204.369969708,3961,6206,1,240,CISNEROS,CONCESION ANI,ANTIOQUIA,28,-75.07477738,8300,8900,18800,23900,27000,http://hermes.invias.gov.co/carreteras/images/peajes/cisneros.jpg,Cisneros - Alto de Dolores,8900,8900,2,Concesión Vías del Nus – VINUS S.A.S,Aplica en ambos sentidos. Tramo que cubre: Cisneros - Antes de la entrada a la vía secundaria hacia,KM 03+000 RUTA 6206. Via Cisneros - Puerto Berrio,321 812 2264,311 739 5570 – 018000413724 – (4) 8603102,8700,8400,6400,1600,0,0,0,0,0,0,0,0,0,1700,1900,0,0,0,0,0,Categoría I (Automóviles y Camperos),Categoría II Camiones y Buses 2 Ejes pequeños,Categoría III - Camiones y Buses 2 Ejes grandes,Categoría IV - 3 y 4 ejes,Categoría V - 5 ejes,Categoría VI,Categoría VII, , , , , , , , , , , , ,Eje Especial IE,Eje Especial IIE, , , , , 
-8397164.96095636,713890.291673625,3812,2510,0,0,TRAPICHE,DEPARTAMENTO,ANTIOQUIA,6.39963727,-75.43301628,9200,15700,26500,34900,39000,http://hermes.invias.gov.co/carreteras/images/peajes/peaje.jpg,Medellìn - Hoyo Rico,10200,11100,3,Concesión Hatovial S.A.S,Norte,Km 4  Vía alterna Girardota Hatillo,2892224 – 3108992859 - 01-8000-522-44-77,(054) 312 11 99-325 06 60,0,0,0,0,0,0,0,0,0,0,0,0,0,0,0,0,0,0,0,0,Automóviles y Camperos,Camiones y Buses 2 Ejes pequeños,Camiones y Buses 2 Ejes grandes,3 y 4 ejes,5 ejes,6 ejes,VII, , , , , , , , , , , , , , , , , , , 
-8139915.80391179,1263445.40957872,3845,9009,955,53,EL EBANAL,CONCESION ANI,GUAJIRA,41,-73.12210778,9600,18900,27700,44700,56400,http://hermes.invias.gov.co/carreteras/images/peajes/peaje.jpg,Río Palomino - Riohacha,14800,11900,2,Concesión  Santa Marta - Paraguachón S.A .,Aplica en ambos sentidos de circulación,Ubicación: 53+950 Tramo que cubre:Vía Riohacha - Palomino,3143300807 - (5) 7288542 /43,(5) 728 85 43,0,0,0,4800,0,0,0,0,0,0,0,0,0,5000,7500,0,0,0,0,0,Automóviles y Campero,Buses y Busetas 2 ejes Pequeños,Camiones 350,Camiones 600,3 a 4 Ejes,5 Ejes,6 a mas ejes, , , , , , , , , , , , ,Categoría especial IE,Categoría especial IIE, , , , , 
-8257616.30903414,523631.943481683,3974,5008A,71,367,RÍO BOGOTÁ,CONCESION ANI,CUNDINAMARCA,107,-74.1794455,8000,13900,23600,31900,34500,http://hermes.invias.gov.co/carreteras/images/peajes/peaje.jpg,Los Alpes - Madrid - Bogotá (Rio Bogotá),12000,10400,2,CONCESIÓN CCFC S.A,Oriente  - Occidente Bogotá  -  Faca,Peaje Río Bogotá – Facatativá – Villeta – Vianí – Cambao Km 0+700 Jurisdicción del Municipio de Mosquera,3792200 – 8930977,"300 2134184 - 310 3042774 - #235 Tigo, Movistar y Claro",0,0,0,200,0,0,0,0,0,0,0,0,200,200,200,200,200,200,200,200,Automóviles y Camperos,Camiones y Buses 2 ejes pequeños,Camiones y Buses 2 ejes grandes,3 y 4 ejes,5 Ejes,6 Ejes, , , , , , , , , , , , ,Eje especial,Eje especial Categoría I,Eje especial Categoría II,Eje especial Categoría III,Eje especial Categoría IV,Eje especial Categoría V,Eje especial Categoría VI, 
-8407972.13219303,927377.23569395,3976,2513,52,138,LOS MANGUITOS,CONCESION ANI,CORDOBA,8.30118958,-75.52981216,13100,19300,34900,55600,64100,http://hermes.invias.gov.co/carreteras/images/peajes/peaje.jpg,Caucasia - Planeta Rica,19300,19300,2,Concesión Ruta al Mar,Aplica en ambos sentido,Vía Caucasia – Planeta Rica (Municipio de Plaza Bonita) Cubre Tramo Buenavista – Planeta Rica,sin numero,3216177100,0,0,0,6600,0,0,0,0,0,0,0,0,0,6400,0,0,0,0,0,0,"Automóviles, Camperos y Camionetas",Buses,Camiones pequeños de 2 ejes,Camiones grandes de 2 ejes,Camiones de 3 y 4 ejes,Camiones de 5 ejes,Camiones de 6 ejes, , , , , , , , , , , , ,Categoría especial IE, , , , , , 
-8249807.58694736,1260824.86323756,3863,9008,6,759,NENGUANJE,CONCESION ANI,MAGDALENA,81,-74.10928246,9600,18900,27700,44700,56400,http://hermes.invias.gov.co/carreteras/images/peajes/peaje.jpg,Santa Marta - Río Palomino,14800,11900,2,Concesión Santa Marta - Paraguachón S.A.,Aplica en ambos sentidos,"Ubicación: 6+500
Tramo que cubre:
Puente Nenguange – Palomino",3138891473 - (5) 7288542/43,(5) 728 85 43,0,0,0,4800,0,0,0,0,0,0,0,0,0,5000,7500,0,0,0,0,0,Automóviles y Camperos,Buses y Busetas 2 ejes,Camiones 350 2 ejes Dobles,Camiones 600 2 ejes Dobles,3 a 4 Ejes,5 Ejes,6 a mas ejes, , , , , , , , , , , , ,CAT ESPECIAL IE,CAT ESPECIAL IIE, , , , , 
-8440230.37583229,1016326.69145678,3938,2103,32,632,MATA DE CAÑA,CONCESION ANI,CORDOBA,78,-75.81987948,12800,18900,20200,29400,29500,http://hermes.invias.gov.co/carreteras/images/peajes/mata_de_cana.jpg,Cereté - Lorica,18900,18900,2,Concesión Ruta al Mar,Sur – Norte,Vía Monteria - Lorica Km 32+700 Metros,3102468199 - 3145007265,3216177100,0,0,0,0,0,0,0,0,0,0,0,0,0,0,0,0,0,0,0,0,"Automóviles, Camperos y Camionetas",Buses,Camiones pequeños de 2 ejes,Camiones grandes de 2 ejes,Camiones de 3 y 4 ejes,Camiones de 5 ejes,Camiones de 6 ejes, , , , , , , , , , , , , ,Categoría especial IIE, , , , , 
-8371641.31663534,378018.292522387,3946,4506,53,376,EL PATÁ,CONCESION ANI,HUILA,43,-75.20373348,11700,20200,34400,44200,50100,http://hermes.invias.gov.co/carreteras/images/peajes/peaje.jpg,Neiva - Natagaima,14100,15800,2,Concesión Autovía Neiva – Girardot,Aplica en ambos sentidos de circulación,Vía Neiva – Castilla Km 54+400 Jurisdicción de Aipe,3153340727 – 3174340907 - 3502621485,667 10 30,0,0,0,0,0,0,0,0,0,0,0,0,0,0,0,0,0,0,0,0,Automóviles y Camperos,Camiones y Buses 2 ejes pequeños,Camiones y Buses 2 ejes grandes,3 y 4 ejes,5 Ejes,6 Ejes,Categoría VII, , , , , , , , , , , , , , , , , , , 
-8032444.05840472,1273820.411258,3963,9010,84,476,PARAGUACHÓN,CONCESION ANI,GUAJIRA,88,-72.15662439,9600,18900,27700,44700,56400,http://hermes.invias.gov.co/carreteras/images/peajes/peaje.jpg,Riohacha - Paraguachón,14800,11900,2,Concesión  Santa Marta Paraguachón S.A.,Aplica en ambos sentido de circulación,Ubicación: 84+475 Tramo que cubre:Cuatro vías - Paraguachón,3143300807 - (5) 7288542 /43,(5) 728 85 43,0,0,0,4800,0,0,3000,0,0,0,0,0,2900,5000,3000,3000,3000,0,0,0,Categoría I Automóviles y Campero,Categoría II Buses y Busetas 2 ejes Pequeños,Camiones 350,Camiones 600,3 a 4 ejes,5 ejes,6 a mas ejes, , , , , , , , , , , ,Categoría E,Categoría especial IE,Categoría especial IIE,Categoría IIIE,Categoría IVE, , , 
-8075377.69215426,1282595.43686034,3818,9010,41,170,ALTO PINO,CONCESION ANI,GUAJIRA,5,-72.54242716,9600,18900,27700,44700,56400,http://hermes.invias.gov.co/carreteras/images/peajes/peaje.jpg,Riohacha - Paraguachón,14800,11900,2,Concesión  Santa Marta Paraguachón S.A,Aplica en ambos sentidos de circulación,Ubicación 41+175 Tramo que cubre: VIA  Riohacha - Cuatro Vías,314 3300807 - (5) 7288542 /43,(5) 728 85 43,0,0,0,4800,0,0,0,0,0,0,0,0,0,5000,7500,0,0,0,0,0,Automóviles y Camperos,Buses y Busetas 2 ejes pequeños,Camiones 350,Camiones 600,3 a 4 Ejes,5 Ejes,6 a mas ejes, , , , , , , , , , , , ,Categoría especial IE,Categoría especial IIE, , , , , 
-8506076.61316752,418860.466424549,5606,2301,51,848,MEDIACANOA,INVIAS,VALLE DEL CAUCA,79,1,9000,38300,44100,0,0,https://hermes.invias.gov.co/recursos/Fichas%20Peajes/5606.pdf,Yumbo - Mediacanoa,10900,29400,5,INVIAS,Sur - Norte // Norte - Sur,Vía Cali – Mediacanoa Km 36+600,No cuenta con número,No cuenta con servicio,10700,21200,6600,4100,,,,,,,,6600,,,4900,,,,,,Automóviles y Camperos,Camiones y Buses 2 ejes pequeños,Camiones y Buses 2 ejes grandes,3 y 4 ejes,5 Ejes,,,,,,,,,Eje Grúa,Eje Adicional Remolque,Eje Adicional,,Eje Cañero,,CAT IE,CAT IIE,,,,,
-8322134.38328333,1209386.43050136,3874,2516,64,807,SABANAGRANDE,CONCESION ANI,ATLANTICO,10.79958164,-74.75900513,8500,26400,30500,0,0,http://hermes.invias.gov.co/carreteras/images/peajes/peaje.jpg,Palmar de Varela - Barranquilla,9200,20200,2,Consorcio Ruta Caribe,Ambos sentidos de circulación,Vía Oriental Km 55,3006738048,3212057227,8700,8400,6000,2300,0,0,0,0,0,0,0,0,0,2600,3100,0,0,0,0,0,Automóviles y Camperos,Camiones y Buses 2 ejes Pequeños,Camiones y Buses 2 ejes Grandes,3 y 4 Ejes,5 Ejes,NO APLICA,NO APLICA, , , , , , ,EJE GRUA,EJE ADICIONAL REMOLQUE,EJE ADICIONAL, , , , , , , , , , 
-8417833.19874349,551729.275735417,3897,29RSC,24,754,TARAPACÁ II,CONCESION ANI,RISARALDA,123,-75.61877556,11500,15200,38100,50400,56300,http://hermes.invias.gov.co/carreteras/images/peajes/peaje.jpg,Intersección Jazmín - Estación de  Servicio Chinchiná,15200,15200,2,Concesión Autopistas del Café,Aplica en ambos sentidos de circulación,Vía Pereira – Chinchiná PR29RSC Km 24 + 100,(6) 3282720,3138176567 #850,0,0,0,0,0,0,0,0,0,0,0,0,0,0,0,0,0,0,0,0,Categoría I Automóviles y Camperos,Categoría II 2 ejes dobles pequeños,Categoría III 2 ejes Busetas y Buses,Categoría IV 2 ejes grandes Dobles Camiones,Categoría V 3 y 4 ejes,Categoría VI 5 Ejes,Categoría VI 6 Ejes, , , , , , , , , , , , , , , , , , , 
-8511491.80979837,350970.650486233,5607,2504,89,1314,VILLARICA,INVIAS,CAUCA,136,1,9000,38300,44100,0,0,https://hermes.invias.gov.co/recursos/Fichas%20Peajes/5607.pdf,Popayán - Jamundí,10900,29400,5,INVIAS,Sur – Norte // Norte – Sur,Kilometro 91 Vía Panamericana Jurisdicción del Municipio de Villa Rica,No cuenta con número,No cuenta con servicio,10700,21200,6600,4600,,,,,,,,6600,,,5500,,,,,,Categoría I Automóviles y camperos,Categoría II Camiones y buses 2 ejes pequeños,Categoría III Camiones y buses 2 ejes grandes,Categoría IV 3 y 4 ejes,Categoría V 5 ejes,,,,,,,,,Categoría Eje Grúa,Categoría Eje Remolque,Categoría Eje Adicional,,Categoría Eje Cañero,,Categoría Especial IE,Categoría Especial IIE,,,,,
-8333498.02929989,467087.516082824,3844,4507,47,1640,FLANDES,CONCESION ANI,TOLIMA,47,-74.8610865,11700,19900,33300,42700,48600,http://hermes.invias.gov.co/carreteras/images/peajes/peaje.jpg,El Espinal - Girardot,13900,15600,2,Concesión Autovía Neiva - Girardot,Aplica en ambos sentidos de circulación,Km. 4 Vía Espinal - Girardot,3153340727 – 3174340907 - 3502621485,667 10 30,0,0,0,7000,0,0,0,0,0,0,0,0,0,7400,0,0,0,0,0,0,Categoría I Automóviles y Camperos,Categoría II Camiones y Buses  2 ejes pequeños,Categoría III Camiones y Buses 2 ejes grandes,Categoría IV 3 y 4 ejes,Categoría V 5 Ejes,Categoría VI 6 Ejes,Categoría VII, , , , , , , , , , , , ,Categoría Especial IE, , , , , , 
-8441005.92280596,988240.854476752,3968,2103,1,473,LOS GARZONES 1,CONCESION ANI,CORDOBA,53,-75.82446454,4500,23600,27100,0,0,http://hermes.invias.gov.co/carreteras/images/peajes/peaje.jpg,Montería - Cereté,12000,18600,2,Concesión Autopistas de la Sabana Córdoba - Sucre,GARZONES 1 SUR – NORTE,Vía Monteria - Lorica Km. 1 más 320 metros,3124964386,3184095455 – 3182406622,0,0,0,4700,0,0,0,0,0,0,0,0,2900,3000,4800,6300,0,0,0,0,Automóviles y Campero,Camiones y Buses 2 ejes Pequeños,Camiones y Buses 2 ejes Grandes,Camiones y Buses 2 ejes Grandes,Camiones y Buses 2 ejes Grandes, , , , , , , , , , , , , ,Categoría especial E,Categoría especial IE,Categoría especial IIE, , , , , 
-8175363.93449905,794446.182532405,3972,6602,0,0,RÍO SOGAMOSO,CONCESION ANI,SANTANDER,110,-73.44054376,8500,24800,27900,0,0,http://hermes.invias.gov.co/carreteras/images/peajes/rio_sogamoso.jpg,Cruce Ruta 45 (La Fortuna) - Lebrija,9300,19500,2,RUTA DEL CACAO,Aplica en ambos sentidos Tramo que cubre: Bucaramanga - Barrancabermeja – Yondó,Vía Fortuna - Bucaramanga  Km 14 + 040,317 573 8658,310 391 0901 – 317 765 0144,8700,8400,6400,2000,0,0,0,0,0,0,0,0,0,2100,2300,0,0,0,0,0,Automóviles y Camperos.,Camiones y Buses 2 ejes Pequeños,Camiones y Buses 2 Ejes Grandes,3 y  4 ejes,5 ejes, , , , , , , , ,Eje Grúa,Eje Remolque,Eje adicional, , , ,CAT ESPECIAL IE,CAT ESPECIAL IIE, , , , , 
-8204958.92822785,404699.753033236,3970,6509,6,919,IRACÁ,CONCESION ANI,META,58,-73.70640011,9700,23300,34600,46000,50000,http://hermes.invias.gov.co/carreteras/images/peajes/peaje.jpg,Ye de Granada - Paso por el Puente sobre el Río Ocoa,19400,13300,2,Concesión Autopistas de los Llanos,Sur,Vía Villavicencio – Granada Km 7+200,(8) 6700868 - #765 018000918624,(578) 668 49 90-91,0,0,0,0,0,0,0,0,0,0,0,0,0,0,0,0,0,0,0,0,"Automóviles, Camperos y Camionetas",Camiones y Buses con eje trasero doble llanta,Camiones de 3 y 4 ejes,Camiones de 5 ejes,Tracto Camiones,6 Ejes, , , , , , , , , , , , , , , , , , , , 
-8068900.29818929,878566.478553392,3969,7010,1,792,LA PARADA,INVIAS,N. DE SANTANDER,66,-72.48416464,2000,2000,2000,0,0,http://hermes.invias.gov.co/carreteras/images/peajes/peaje.jpg,Cúcuta - Puente Internacional Simón Bolívar,2000,2000,5,,Sentido San Antonio (Venezuela) - Cúcuta,Km. 2 de la Autopista Internacional que comunica a Cúcuta con San Antonio,3104946611,320 345 2139,2000,0,2000,0,0,0,0,0,0,0,0,0,0,0,0,0,0,0,0,0, , , , , , , , , , , , , , , , , , , , , , , , , , 
-8270054.67293324,529226.738175512,3966,5008A,56,1022,EL CORZO,CONCESIÓN ANI,CUNDINAMARCA,31,-74.29116513,8000,13900,23600,31900,34500,http://hermes.invias.gov.co/carreteras/images/peajes/peaje.jpg,Los Alpes - Madrid - Bogotá (Rio Bogotá),12000,10400,2,CONCESIÓN CCFC S.A,Occidente - Oriente Faca  - Bogota,Peaje Río Bogotá – Facatativá – Villeta – Vianí – Cambao Km 17 Jurisdicción del Municipio de Madrid,"3792200 – 8930977 300 2134184 - 310 3042774 - #235 Tigo, Movistar y Claro",(571) 893 09 77,0,0,0,200,0,0,0,0,0,0,0,0,200,200,200,200,200,200,200,200,Categoría I Automóviles y Camperos,Categoría II Camiones y Buses 2 ejes pequeños,Categoría III Camiones y Buses 2 ejes grandes,Categoría IV 3 y 4 ejes,Categoría V 5 Ejes,Categoría VI 6 Ejes,Categoría VII, , , , , , , , , , , ,Categoría Especial,Categoría Especial I,Categoría Especial II,Categoría Especial III,Categoría Especial IV,Categoría Especial V,Categoría Especial VI, 
-8315990.70611612,567636.660105217,3987,4509,5,0,CAMBAO,CONCESION ANI,Alto Magdalena,0,0,9900,25700,36400,59000,67400, ,Tramo que cubre desde Flandes hasta Puerto Salgar,14000,19200,2,Concesión Alto Magdalena,Aplica en ambos sentidos,Km05+892 Ruta 45 Tramo 09,3219738507,3219738507,0,0,0,0,0,0,0,0,0,0,0,0,0,0,0,0,0,0,0,0,Automóviles - Camperos - Camionetas,Buses - Busetas - Microbuses,Camiones pequeños de 2 Ejes,Camiones grandes de 2 Ejes,Camiones de 3 y 4 Ejes,Camiones de 5 Ejes,Camiones de 6 o mas Ejes, , , , , , , , , , , , , , , , , , , 
-8293313.98508051,475705.454463179,3991,4005,51,1059,CHINAUTA,CONCESION ANI,CUNDINAMARCA,24,-74.50011468,10700,41800,48100,0,0,http://hermes.invias.gov.co/carreteras/images/peajes/peaje.jpg,Girardot - Silvania - Bogotá (Bosa),12000,25700,2,Concesión Vía 40 Express, Sur - Norte // Norte - Sur,Soacha – Girardot Km 52,3104224687 - 3117872339 - 3117903187,3104224687 - 3117872339 - 3117903187,10100,9800,6600,2700,0,0,0,0,0,0,0,0,0,2600,0,0,0,0,0,0,Categoría I Automóviles y Camperos,Categoría II Camiones y Buses 2 ejes pequeños,Categoría III Camiones y Buses 2 ejes grandes,Categoría IV,Categoría V 5 Ejes, , , , , , , , ,Eje Grúa,Eje Adicional Remolque,Eje Adicional, , , ,Categoría IE, , , , , , 
-8219576.29412613,477461.241472667,3997,4006,50,166,PUENTE QUETAME (NARANJAL),CONCESION ANI,CUNDINAMARCA,97,-73.83501604,10200,39400,45900,52900,58800,http://hermes.invias.gov.co/carreteras/images/peajes/peaje.jpg,Bogotá (El Portal) - Villavicencio,26600,20100,2,COVIANDINA S.A.S.,Occidente – Oriente // Oriente – Occidente,Caqueza – Guayabetal Km 44+700,3144360298 // 3123060332 - 3105851322,3123060332 - 3105851322 -3105851325 y #713,0,0,0,500,0,0,0,500,500,0,0,0,0,500,500,500,500,500,0,0,Categoría I Automóviles y Camperos,Categoría II Camiones y Buses 2 ejes pequeños,Categoría III Camiones y Buses 2 ejes grandes,Categoría IV 3 y 4 Ejes,Categoría V 5 Ejes,Categoría VI 6 Ejes,Categoría VII, , , ,Categoría IEE,Categoría IEEE, , , , , , , ,Categoría IE,Categoría  IIE,Categoría IIIE,Categoría  IVE,Categoría VE, , 
-8442109.61781987,986615.57327765,3999,2103,1,0,LOS GARZONES 2,CONCESION ANI,CORDOBA,0,0,4500,23600,27100,0,0, ,Montería - Cereté,12000,18600,2,Concesión Autopistas de la Sabana Córdoba - Sucre,GARZONES 2  NORTE - SUR.,Vía Monteria - Lorica Km. 1 más 320 metros,3124964386,3184095455 – 3182406622,0,0,0,0,0,0,0,0,0,0,0,0,0,3000,4800,6300,0,0,0,0,Automóviles y Campero,Camiones y Buses 2 ejes Pequeños,Camiones y Buses 2 ejes Grandes,Camiones y Buses 2 ejes Grandes,Camiones y Buses 2 ejes Grandes, , , , , , , , , , , , , ,Categoría especial E,Categoría especial IE,Categoría especial IIE, , , , , 
-8383162.08666225,331636.283787512,3854,4506,3,728,NEIVA,CONCESION ANI,HUILA,82,-75.30722632,11700,19900,33300,42700,48600,http://hermes.invias.gov.co/carreteras/images/peajes/peaje.jpg,Neiva - Natagaima,13900,15600,2,Concesión Autovía Neiva – Girardot,Aplica en ambos sentidos de circulación,Vía Neiva – Castilla Km 3+700 Jurisdicción Municipio de Neiva,3153340727 – 3174340907 - 3502621485,667 10 30,0,0,0,4900,0,0,0,0,0,0,0,0,0,5200,0,0,0,0,0,0,Automóviles y Camperos,Camiones y Buses 2 ejes pequeños,Camiones y Buses 2 ejes grandes,3 y 4 ejes,5 Ejes,6 Ejes,CAT VII, , , , , , , , , , , , ,Categoría IE, , , , , , 
-8344075.49132015,1228428.57832282,3939,90A01,93,572,PUERTO COLOMBIA,CONCESION ANI,ATLANTICO,103,-74.95606254,14000,26800,83800,111700,124000,http://hermes.invias.gov.co/carreteras/images/peajes/peaje.jpg,Cartagena - Lomita Arena,21000,15300,2,Concesión Costera - Barranquilla - Cartagena,Ambos sentidos de circulación,Vía al Mar Km 93,3124572706 - 3157210245 o #212 Movistar / 3106303666 o #211 Claro / 3004510014 o #211 Tigo,018000977330 - 3114803629,0,0,0,0,0,0,0,0,0,0,0,0,0,0,0,0,0,0,0,0,Automóviles y Camperos,Buses de Transporte Público,Camiones 2 ejes Pequeños,Camiones 2 ejes Grandes,Camiones de 3 y 4 Ejes,5 Ejes,6 Ejes, , , , , , , , , , , , , , , , , , , 
-8399117.83288341,1183892.13649581,3904,90A01,15,949,MARAHUACO,CONCESION ANI,BOLÍVAR,77,-75.45040902,15000,28600,89700,119600,132900,http://hermes.invias.gov.co/carreteras/images/peajes/peaje.jpg,Cartagena - Lomita Arena,22600,16400,2,Concesión Costera - Barranquilla - Cartagena,Ambos sentidos de circulación,Km 16 Vía Cartagena  - Barranquilla,3124572713 - 3157210245 Ó # 212 Movistar / 3106303666 Ó # 211 Claro / 3004510014 Ó # 211 Tigo,018000977330 - 3114803629,0,0,0,0,0,0,0,0,0,0,0,0,0,7100,8500,7500,8700,0,0,0,Automóviles y Camperos,Buses de Transporte Público,Camiones  2 ejes Pequeños,Camiones  2 ejes Grandes,Camiones 3 y 4 Ejes,5 Ejes,6 Ejes, , , , , , , , , , , , , , , , , , , 
-8416433.52301469,523605.721779189,3866,2901,15,1723,CIRCASIA,CONCESION ANI,QUINDÍO,27,-75.60612749,13800,17600,42900,52600,58600,http://hermes.invias.gov.co/carreteras/images/peajes/peaje.jpg,Armenia-Pereira,17600,17600,2,Concesión Autopistas del café,Norte Sur y Sur Norte,Vía Armenia - Pereira Km. 16+750,(6) 3282720 3138176567 #850,602 22 33,0,0,0,0,0,0,0,0,0,0,0,0,0,0,0,0,0,0,0,0,Categoría I Automóviles y Camperos,Categoría II Camiones y Buses 2 ejes pequeños,Categoría III Camiones y Buses 2 ejes grandes,Categoría IV 3 y 4 ejes,Categoría V 5 Ejes,Categoría VI 6 Ejes,Categoría VII, , , , , , , , , , , , , , , , , , , 
-8425617.14122294,705677.51274648,3824,000,0,0,PALMITAS,CONCESION ANI,ANTIOQUIA,6.32631511,-75.68860656,16200,51900,62100,0,0,http://hermes.invias.gov.co/carreteras/images/peajes/peaje.jpg,Puente Aurrá - Medellín,18300,39900,2,DESARROLLO VIAL AL MAR SAS,Medellín - Santa Fe de Antioquia,Oriente Occidente Km 39+600 Occidente Oriente Km 44+800,3176676335   018000400016,3176676335   018000400016,6300,0,0,7900,0,0,0,0,0,0,0,0,0,8100,9200,0,0,0,0,0, , , , , , , , , , , , , , , , , , , , , , , , , , 
-8241804.79825269,542073.283940947,3860,45A04,5,627,UNISABANA,CONCESION ANI,CUNDINAMARCA,126,-74.03148118,0,0,16450,21250,23550,http://hermes.invias.gov.co/carreteras/images/peajes/peaje.jpg,Bogotá - Ubaté,0,0,2,CONCESIÓN  ACCENORTE,Sur – Norte,Bogotá – Albarracín Km 5+600,6760652  Opc 1 - 3125194023 – 3125196546,676 06 52,0,0,0,0,0,0,0,0,0,0,0,0,0,0,0,0,0,0,0,0,"Categoría I Automóviles, Camperos y Camionetas",Categoría II Buses,Categoría III Camiones pequeños de 2 ejes,Categoría IV Camiones grandes de 2 ejes,Categoría V Camiones de 3 y 4 ejes,Categoría VI Camiones de 5 ejes,Categoría VII Camiones de 6 ejes o más, , , , , , , , , , , , , ,Eje IIE, , , , , 
-8407582.15318879,707781.571103284,3965,2510,0,0,NIQUÍA,DEPARTAMENTO,ANTIOQUIA,6.34493547,-75.52716682,2500,3400,3400,3400,3400,http://hermes.invias.gov.co/carreteras/images/peajes/peaje.jpg,Medellìn - Hoyo Rico,2500,3200,3,Concesión Hatovial S.A.S,Norte,Km 15+000 Autopista norte,4678141 - 3108992853 - 3108992853 - 2544670 - 01-8000-522-44-77,(054) 312 11 99-325 06 60,0,0,0,0,0,0,0,0,0,0,0,0,0,0,0,0,0,0,0,0, , , , , , , , , , , , , , , , , , , , , , , , , , 
-8498482.11185979,392486.147052972,5204,2505,16,344,CIAT,INVIAS,VALLE DEL CAUCA,26,1,9100,38400,44200,0,0,https://hermes.invias.gov.co/recursos/Fichas%20Peajes/5204.pdf,Cali - Palmira - Buga,11000,29700,5,INVIAS,Norte – Sur,Vía Cali – Andalucía Km 17+300,No cuenta con número,No cuenta con servicio,10700,21200,6600,4700,,,,,,,,6600,,,8000,,,,,,Categoría I Automóviles y Camperos,Camiones y Buses 2 ejes pequeños,Camiones y Buses 2 ejes grandes,3 y 4 ejes,5 Ejes,,,,,,,,,Eje Grúa,Eje Remolque,Eje Adicional,,Eje Cañero,,Eje Especial I,Eje Especial II,,,,,
-8322997.58511648,1227324.24226252,4004, ,0,0,CORREDOR PORTUARIO,DISTRITO,ATLANTICO,10.95782386,-74.7667594,6400,20000,22200,0,0,http://hermes.invias.gov.co/carreteras/images/peajes/peaje.jpg,Calle 6,7100,,4,,,,,,,,,,,,,,,,,,,,,,,,,,,,,,,,,,,,,,,,,,,,,,,,,,,
-8187161.06651644,825747.000957529,3800,6602,37,300,LA GÓMEZ,INVIAS,SANTANDER,63,1,11100,39400,46300,0,0,https://hermes.invias.gov.co/recursos/Fichas%20Peajes/3800.pdf,Cruce Ruta 45 (La Fortuna) - Lebrija,14000,32900,5,INVIAS,Sur – Norte,Vía La Lizama – San Alberto Km 37 + 300,No tiene servicio,No tiene servicio,10200,10000,7300,0,0,0,0,0,0,0,0,0,0,0,0,0,0,0,0,0,Automóviles y Camperos.,Camiones y Buses 2 ejes Pequeños.,3 ejes.,4 ejes.,5 ejes., , , , , , , , ,Eje Grúa.,Eje Remolque.,Eje adicional., , , , , , , , , , 
-8283761.39296536,564621.506582997,3868,5008,76,1331,CAIQUEROS,CONCESION ANI,CUNDINAMARCA,13,-74.41408613,9300,36100,41500,0,0,http://hermes.invias.gov.co/carreteras/images/peajes/peaje.jpg,Villeta - Bogotá,12100,30000,2,CONCESIÓN SABANA DE OCCIDENTE,Ambos sentidos de circulación,Km.67+800 Bogotá (El Cortijo) – Siberia – La Punta – El Vino – Villeta,5939260 ---------3185577768---------- 3102613190----------- 3002149460,5939260,9300,8900,6500,2100,0,0,0,0,0,0,0,0,0,2200,0,0,0,0,0,0,"Categoría I Automóviles, Camionetas y Camperos",Categoría II Vehículos de 2 ejes,Categoría III Camiones de 3 y 5 ejes,Categoría IV Camiones de 5 ejes,Categoría V Camiones de 6 ejes o más, , , , , , , , ,Categoría Eje Grúa,Categoría Eje Remolque,Categoría Eje Adicional, , , ,Categoría IE, , , , , , 
-8509598.85859286,389941.303342945,4804,2505,4,954,ESTAMBUL,INVIAS,VALLE DEL CAUCA,46,1,9100,38400,44200,0,0,https://hermes.invias.gov.co/recursos/Fichas%20Peajes/4804.pdf,Cali - Palmira - Buga,11000,29700,5,INVIAS,Sur - Norte,Vía Cali – Andalucía Km 5,No cuenta con número,No cuenta con servicio,10700,21200,6600,4700,,,,,,,,6600,,,8000,,,,,,Automóviles y Camperos,Camiones y Buses 2 ejes pequeños,Camiones y Buses 2 ejes grandes,3 y 4 ejes,5 Ejes,,,,,,,,,Eje Grúa,Eje Remolque,Eje Adicional,,Eje Cañero,,Eje Especial I,Eje Especial II,,,,,
-8335652.91148237,473034.788636557,3923,4004B,0,6493,CHICORAL,CONCESION ANI,TOLIMA,23,-74.88050851,11200,14600,29500,39400,43400,http://hermes.invias.gov.co/carreteras/images/peajes/peaje.jpg,Variante Chicoral,12200,11200,2,Concesionaria San Rafael  S.A.,Aplica en ambos sentidos de circulación,Km. 17+0350 de la ruta 4004B que corresponde a la vía Variante de Chicoral,3138863287,3212087489,10100,9900,7100,5900,0,0,0,0,0,0,0,0,0,0,0,0,0,0,0,0,Categoría I Automóviles y Camperos,Categoría II Camiones y Buses 2 ejes pequeños,Categoría III Camiones y Buses 2 ejes grandes,Categoría IV 3 y 4 ejes,Categoría V 5 Ejes,Categoría VI 6 Ejes,Categoría VII, , , , , , ,Categoría Eje Grúa,Categoría Eje Adicional Remolque,Categoría Eje Adicional, , , ,Categoría Especial IE, , , , , , 
-8245664.87350833,497647.578430927,3973,40CN01,11,1051,PUESTO DE CONTROL BOQUERÓN II,CONCESION ANI,CUNDINAMARCA,104,-74.05008445,11900,47100,52900,58800,70500,http://hermes.invias.gov.co/carreteras/images/peajes/peaje.jpg,El Portal - El Antojo,35300,17800,2,COVIANDINA S.A.S.,Occidente – Oriente // Oriente – Occidente,Caqueza – Guayabetal Km 50+100,3123063223 - 3123030336 – 3105851322,3123060332 - 3105851322 -3105851325 y #713,0,0,0,400,0,0,0,1600,6100,0,0,0,0,400,11500,400,0,0,0,0,Categoría I Automóviles y Camperos,Categoría II Camiones y Buses 2 eje pequeños,Categoría III Camiones y Buses 2 ejes grandes,Categoría IV 3 y 4 Ejes,Categoría V 5 Ejes,Categoría VI 6 Ejes,Categoría VII, , , ,Categoría IEE,Categoría IEEE, , , , , , , ,Categoría IE,Categoría IIE,Categoría IIIE, , , , 
